<?xml version="1.0" encoding="UTF-8"?>
<kml xmlns="http://www.opengis.net/kml/2.2">
  <Document>
    <name>Mapeamento unidades de saúde</name>
    <description>Unidades de saúde de Cachoeirinha e respectivas áreas de abrangência</description>
    <Style id="icon-1557-9C27B0-normal">
      <IconStyle>
        <color>ffb0279c</color>
        <scale>1</scale>
        <Icon>
          <href>https://www.gstatic.com/mapspro/images/stock/503-wht-blank_maps.png</href>
        </Icon>
      </IconStyle>
      <LabelStyle>
        <scale>0</scale>
      </LabelStyle>
    </Style>
    <Style id="icon-1557-9C27B0-highlight">
      <IconStyle>
        <color>ffb0279c</color>
        <scale>1</scale>
        <Icon>
          <href>https://www.gstatic.com/mapspro/images/stock/503-wht-blank_maps.png</href>
        </Icon>
      </IconStyle>
      <LabelStyle>
        <scale>1</scale>
      </LabelStyle>
    </Style>
    <StyleMap id="icon-1557-9C27B0">
      <Pair>
        <key>normal</key>
        <styleUrl>#icon-1557-9C27B0-normal</styleUrl>
      </Pair>
      <Pair>
        <key>highlight</key>
        <styleUrl>#icon-1557-9C27B0-highlight</styleUrl>
      </Pair>
    </StyleMap>
    <Style id="icon-1624-0288D1-normal">
      <IconStyle>
        <color>ffd18802</color>
        <scale>1</scale>
        <Icon>
          <href>https://www.gstatic.com/mapspro/images/stock/503-wht-blank_maps.png</href>
        </Icon>
      </IconStyle>
      <LabelStyle>
        <scale>0</scale>
      </LabelStyle>
    </Style>
    <Style id="icon-1624-0288D1-highlight">
      <IconStyle>
        <color>ffd18802</color>
        <scale>1</scale>
        <Icon>
          <href>https://www.gstatic.com/mapspro/images/stock/503-wht-blank_maps.png</href>
        </Icon>
      </IconStyle>
      <LabelStyle>
        <scale>1</scale>
      </LabelStyle>
    </Style>
    <StyleMap id="icon-1624-0288D1">
      <Pair>
        <key>normal</key>
        <styleUrl>#icon-1624-0288D1-normal</styleUrl>
      </Pair>
      <Pair>
        <key>highlight</key>
        <styleUrl>#icon-1624-0288D1-highlight</styleUrl>
      </Pair>
    </StyleMap>
    <Style id="icon-1624-0288D1-nodesc-normal">
      <IconStyle>
        <color>ffd18802</color>
        <scale>1</scale>
        <Icon>
          <href>https://www.gstatic.com/mapspro/images/stock/503-wht-blank_maps.png</href>
        </Icon>
      </IconStyle>
      <LabelStyle>
        <scale>0</scale>
      </LabelStyle>
      <BalloonStyle>
        <text><![CDATA[<h3>$[name]</h3>]]></text>
      </BalloonStyle>
    </Style>
    <Style id="icon-1624-0288D1-nodesc-highlight">
      <IconStyle>
        <color>ffd18802</color>
        <scale>1</scale>
        <Icon>
          <href>https://www.gstatic.com/mapspro/images/stock/503-wht-blank_maps.png</href>
        </Icon>
      </IconStyle>
      <LabelStyle>
        <scale>1</scale>
      </LabelStyle>
      <BalloonStyle>
        <text><![CDATA[<h3>$[name]</h3>]]></text>
      </BalloonStyle>
    </Style>
    <StyleMap id="icon-1624-0288D1-nodesc">
      <Pair>
        <key>normal</key>
        <styleUrl>#icon-1624-0288D1-nodesc-normal</styleUrl>
      </Pair>
      <Pair>
        <key>highlight</key>
        <styleUrl>#icon-1624-0288D1-nodesc-highlight</styleUrl>
      </Pair>
    </StyleMap>
    <Style id="icon-1624-0F9D58-normal">
      <IconStyle>
        <color>ff589d0f</color>
        <scale>1</scale>
        <Icon>
          <href>https://www.gstatic.com/mapspro/images/stock/503-wht-blank_maps.png</href>
        </Icon>
      </IconStyle>
      <LabelStyle>
        <scale>0</scale>
      </LabelStyle>
    </Style>
    <Style id="icon-1624-0F9D58-highlight">
      <IconStyle>
        <color>ff589d0f</color>
        <scale>1</scale>
        <Icon>
          <href>https://www.gstatic.com/mapspro/images/stock/503-wht-blank_maps.png</href>
        </Icon>
      </IconStyle>
      <LabelStyle>
        <scale>1</scale>
      </LabelStyle>
    </Style>
    <StyleMap id="icon-1624-0F9D58">
      <Pair>
        <key>normal</key>
        <styleUrl>#icon-1624-0F9D58-normal</styleUrl>
      </Pair>
      <Pair>
        <key>highlight</key>
        <styleUrl>#icon-1624-0F9D58-highlight</styleUrl>
      </Pair>
    </StyleMap>
    <Style id="icon-1807-E65100-normal">
      <IconStyle>
        <color>ff0051e6</color>
        <scale>1</scale>
        <Icon>
          <href>https://www.gstatic.com/mapspro/images/stock/503-wht-blank_maps.png</href>
        </Icon>
      </IconStyle>
      <LabelStyle>
        <scale>0</scale>
      </LabelStyle>
    </Style>
    <Style id="icon-1807-E65100-highlight">
      <IconStyle>
        <color>ff0051e6</color>
        <scale>1</scale>
        <Icon>
          <href>https://www.gstatic.com/mapspro/images/stock/503-wht-blank_maps.png</href>
        </Icon>
      </IconStyle>
      <LabelStyle>
        <scale>1</scale>
      </LabelStyle>
    </Style>
    <StyleMap id="icon-1807-E65100">
      <Pair>
        <key>normal</key>
        <styleUrl>#icon-1807-E65100-normal</styleUrl>
      </Pair>
      <Pair>
        <key>highlight</key>
        <styleUrl>#icon-1807-E65100-highlight</styleUrl>
      </Pair>
    </StyleMap>
    <Style id="icon-1807-E65100-nodesc-normal">
      <IconStyle>
        <color>ff0051e6</color>
        <scale>1</scale>
        <Icon>
          <href>https://www.gstatic.com/mapspro/images/stock/503-wht-blank_maps.png</href>
        </Icon>
      </IconStyle>
      <LabelStyle>
        <scale>0</scale>
      </LabelStyle>
      <BalloonStyle>
        <text><![CDATA[<h3>$[name]</h3>]]></text>
      </BalloonStyle>
    </Style>
    <Style id="icon-1807-E65100-nodesc-highlight">
      <IconStyle>
        <color>ff0051e6</color>
        <scale>1</scale>
        <Icon>
          <href>https://www.gstatic.com/mapspro/images/stock/503-wht-blank_maps.png</href>
        </Icon>
      </IconStyle>
      <LabelStyle>
        <scale>1</scale>
      </LabelStyle>
      <BalloonStyle>
        <text><![CDATA[<h3>$[name]</h3>]]></text>
      </BalloonStyle>
    </Style>
    <StyleMap id="icon-1807-E65100-nodesc">
      <Pair>
        <key>normal</key>
        <styleUrl>#icon-1807-E65100-nodesc-normal</styleUrl>
      </Pair>
      <Pair>
        <key>highlight</key>
        <styleUrl>#icon-1807-E65100-nodesc-highlight</styleUrl>
      </Pair>
    </StyleMap>
    <Style id="icon-1808-9C27B0-normal">
      <IconStyle>
        <color>ffb0279c</color>
        <scale>1</scale>
        <Icon>
          <href>https://www.gstatic.com/mapspro/images/stock/503-wht-blank_maps.png</href>
        </Icon>
      </IconStyle>
      <LabelStyle>
        <scale>0</scale>
      </LabelStyle>
    </Style>
    <Style id="icon-1808-9C27B0-highlight">
      <IconStyle>
        <color>ffb0279c</color>
        <scale>1</scale>
        <Icon>
          <href>https://www.gstatic.com/mapspro/images/stock/503-wht-blank_maps.png</href>
        </Icon>
      </IconStyle>
      <LabelStyle>
        <scale>1</scale>
      </LabelStyle>
    </Style>
    <StyleMap id="icon-1808-9C27B0">
      <Pair>
        <key>normal</key>
        <styleUrl>#icon-1808-9C27B0-normal</styleUrl>
      </Pair>
      <Pair>
        <key>highlight</key>
        <styleUrl>#icon-1808-9C27B0-highlight</styleUrl>
      </Pair>
    </StyleMap>
    <Style id="icon-1834-558B2F-normal">
      <IconStyle>
        <color>ff2f8b55</color>
        <scale>1</scale>
        <Icon>
          <href>https://www.gstatic.com/mapspro/images/stock/503-wht-blank_maps.png</href>
        </Icon>
      </IconStyle>
      <LabelStyle>
        <scale>0</scale>
      </LabelStyle>
    </Style>
    <Style id="icon-1834-558B2F-highlight">
      <IconStyle>
        <color>ff2f8b55</color>
        <scale>1</scale>
        <Icon>
          <href>https://www.gstatic.com/mapspro/images/stock/503-wht-blank_maps.png</href>
        </Icon>
      </IconStyle>
      <LabelStyle>
        <scale>1</scale>
      </LabelStyle>
    </Style>
    <StyleMap id="icon-1834-558B2F">
      <Pair>
        <key>normal</key>
        <styleUrl>#icon-1834-558B2F-normal</styleUrl>
      </Pair>
      <Pair>
        <key>highlight</key>
        <styleUrl>#icon-1834-558B2F-highlight</styleUrl>
      </Pair>
    </StyleMap>
    <Style id="poly-0097A7-1200-110-normal">
      <LineStyle>
        <color>ffa79700</color>
        <width>1.2</width>
      </LineStyle>
      <PolyStyle>
        <color>6ea79700</color>
        <fill>1</fill>
        <outline>1</outline>
      </PolyStyle>
    </Style>
    <Style id="poly-0097A7-1200-110-highlight">
      <LineStyle>
        <color>ffa79700</color>
        <width>1.8</width>
      </LineStyle>
      <PolyStyle>
        <color>6ea79700</color>
        <fill>1</fill>
        <outline>1</outline>
      </PolyStyle>
    </Style>
    <StyleMap id="poly-0097A7-1200-110">
      <Pair>
        <key>normal</key>
        <styleUrl>#poly-0097A7-1200-110-normal</styleUrl>
      </Pair>
      <Pair>
        <key>highlight</key>
        <styleUrl>#poly-0097A7-1200-110-highlight</styleUrl>
      </Pair>
    </StyleMap>
    <Style id="poly-558B2F-2601-105-normal">
      <LineStyle>
        <color>ff2f8b55</color>
        <width>2.601</width>
      </LineStyle>
      <PolyStyle>
        <color>692f8b55</color>
        <fill>1</fill>
        <outline>1</outline>
      </PolyStyle>
    </Style>
    <Style id="poly-558B2F-2601-105-highlight">
      <LineStyle>
        <color>ff2f8b55</color>
        <width>3.9015</width>
      </LineStyle>
      <PolyStyle>
        <color>692f8b55</color>
        <fill>1</fill>
        <outline>1</outline>
      </PolyStyle>
    </Style>
    <StyleMap id="poly-558B2F-2601-105">
      <Pair>
        <key>normal</key>
        <styleUrl>#poly-558B2F-2601-105-normal</styleUrl>
      </Pair>
      <Pair>
        <key>highlight</key>
        <styleUrl>#poly-558B2F-2601-105-highlight</styleUrl>
      </Pair>
    </StyleMap>
    <Style id="poly-7CB342-1200-105-normal">
      <LineStyle>
        <color>ff42b37c</color>
        <width>1.2</width>
      </LineStyle>
      <PolyStyle>
        <color>6942b37c</color>
        <fill>1</fill>
        <outline>1</outline>
      </PolyStyle>
    </Style>
    <Style id="poly-7CB342-1200-105-highlight">
      <LineStyle>
        <color>ff42b37c</color>
        <width>1.8</width>
      </LineStyle>
      <PolyStyle>
        <color>6942b37c</color>
        <fill>1</fill>
        <outline>1</outline>
      </PolyStyle>
    </Style>
    <StyleMap id="poly-7CB342-1200-105">
      <Pair>
        <key>normal</key>
        <styleUrl>#poly-7CB342-1200-105-normal</styleUrl>
      </Pair>
      <Pair>
        <key>highlight</key>
        <styleUrl>#poly-7CB342-1200-105-highlight</styleUrl>
      </Pair>
    </StyleMap>
    <Style id="poly-817717-1200-150-normal">
      <LineStyle>
        <color>ff177781</color>
        <width>1.2</width>
      </LineStyle>
      <PolyStyle>
        <color>96177781</color>
        <fill>1</fill>
        <outline>1</outline>
      </PolyStyle>
    </Style>
    <Style id="poly-817717-1200-150-highlight">
      <LineStyle>
        <color>ff177781</color>
        <width>1.8</width>
      </LineStyle>
      <PolyStyle>
        <color>96177781</color>
        <fill>1</fill>
        <outline>1</outline>
      </PolyStyle>
    </Style>
    <StyleMap id="poly-817717-1200-150">
      <Pair>
        <key>normal</key>
        <styleUrl>#poly-817717-1200-150-normal</styleUrl>
      </Pair>
      <Pair>
        <key>highlight</key>
        <styleUrl>#poly-817717-1200-150-highlight</styleUrl>
      </Pair>
    </StyleMap>
    <Style id="poly-880E4F-1200-77-normal">
      <LineStyle>
        <color>ff4f0e88</color>
        <width>1.2</width>
      </LineStyle>
      <PolyStyle>
        <color>4d4f0e88</color>
        <fill>1</fill>
        <outline>1</outline>
      </PolyStyle>
    </Style>
    <Style id="poly-880E4F-1200-77-highlight">
      <LineStyle>
        <color>ff4f0e88</color>
        <width>1.8</width>
      </LineStyle>
      <PolyStyle>
        <color>4d4f0e88</color>
        <fill>1</fill>
        <outline>1</outline>
      </PolyStyle>
    </Style>
    <StyleMap id="poly-880E4F-1200-77">
      <Pair>
        <key>normal</key>
        <styleUrl>#poly-880E4F-1200-77-normal</styleUrl>
      </Pair>
      <Pair>
        <key>highlight</key>
        <styleUrl>#poly-880E4F-1200-77-highlight</styleUrl>
      </Pair>
    </StyleMap>
    <Style id="poly-A1C2FA-1200-184-normal">
      <LineStyle>
        <color>fffac2a1</color>
        <width>1.2</width>
      </LineStyle>
      <PolyStyle>
        <color>b8fac2a1</color>
        <fill>1</fill>
        <outline>1</outline>
      </PolyStyle>
    </Style>
    <Style id="poly-A1C2FA-1200-184-highlight">
      <LineStyle>
        <color>fffac2a1</color>
        <width>1.8</width>
      </LineStyle>
      <PolyStyle>
        <color>b8fac2a1</color>
        <fill>1</fill>
        <outline>1</outline>
      </PolyStyle>
    </Style>
    <StyleMap id="poly-A1C2FA-1200-184">
      <Pair>
        <key>normal</key>
        <styleUrl>#poly-A1C2FA-1200-184-normal</styleUrl>
      </Pair>
      <Pair>
        <key>highlight</key>
        <styleUrl>#poly-A1C2FA-1200-184-highlight</styleUrl>
      </Pair>
    </StyleMap>
    <Style id="poly-CE93D8-1200-135-normal">
      <LineStyle>
        <color>ffd893ce</color>
        <width>1.2</width>
      </LineStyle>
      <PolyStyle>
        <color>87d893ce</color>
        <fill>1</fill>
        <outline>1</outline>
      </PolyStyle>
    </Style>
    <Style id="poly-CE93D8-1200-135-highlight">
      <LineStyle>
        <color>ffd893ce</color>
        <width>1.8</width>
      </LineStyle>
      <PolyStyle>
        <color>87d893ce</color>
        <fill>1</fill>
        <outline>1</outline>
      </PolyStyle>
    </Style>
    <StyleMap id="poly-CE93D8-1200-135">
      <Pair>
        <key>normal</key>
        <styleUrl>#poly-CE93D8-1200-135-normal</styleUrl>
      </Pair>
      <Pair>
        <key>highlight</key>
        <styleUrl>#poly-CE93D8-1200-135-highlight</styleUrl>
      </Pair>
    </StyleMap>
    <Style id="poly-EDA29B-1200-140-normal">
      <LineStyle>
        <color>ff9ba2ed</color>
        <width>1.2</width>
      </LineStyle>
      <PolyStyle>
        <color>8c9ba2ed</color>
        <fill>1</fill>
        <outline>1</outline>
      </PolyStyle>
    </Style>
    <Style id="poly-EDA29B-1200-140-highlight">
      <LineStyle>
        <color>ff9ba2ed</color>
        <width>1.8</width>
      </LineStyle>
      <PolyStyle>
        <color>8c9ba2ed</color>
        <fill>1</fill>
        <outline>1</outline>
      </PolyStyle>
    </Style>
    <StyleMap id="poly-EDA29B-1200-140">
      <Pair>
        <key>normal</key>
        <styleUrl>#poly-EDA29B-1200-140-normal</styleUrl>
      </Pair>
      <Pair>
        <key>highlight</key>
        <styleUrl>#poly-EDA29B-1200-140-highlight</styleUrl>
      </Pair>
    </StyleMap>
    <Style id="poly-F48FB1-901-133-normal">
      <LineStyle>
        <color>ffb18ff4</color>
        <width>0.901</width>
      </LineStyle>
      <PolyStyle>
        <color>85b18ff4</color>
        <fill>1</fill>
        <outline>1</outline>
      </PolyStyle>
    </Style>
    <Style id="poly-F48FB1-901-133-highlight">
      <LineStyle>
        <color>ffb18ff4</color>
        <width>1.3515</width>
      </LineStyle>
      <PolyStyle>
        <color>85b18ff4</color>
        <fill>1</fill>
        <outline>1</outline>
      </PolyStyle>
    </Style>
    <StyleMap id="poly-F48FB1-901-133">
      <Pair>
        <key>normal</key>
        <styleUrl>#poly-F48FB1-901-133-normal</styleUrl>
      </Pair>
      <Pair>
        <key>highlight</key>
        <styleUrl>#poly-F48FB1-901-133-highlight</styleUrl>
      </Pair>
    </StyleMap>
    <Style id="poly-F57C00-1200-125-normal">
      <LineStyle>
        <color>ff007cf5</color>
        <width>1.2</width>
      </LineStyle>
      <PolyStyle>
        <color>7d007cf5</color>
        <fill>1</fill>
        <outline>1</outline>
      </PolyStyle>
    </Style>
    <Style id="poly-F57C00-1200-125-highlight">
      <LineStyle>
        <color>ff007cf5</color>
        <width>1.8</width>
      </LineStyle>
      <PolyStyle>
        <color>7d007cf5</color>
        <fill>1</fill>
        <outline>1</outline>
      </PolyStyle>
    </Style>
    <StyleMap id="poly-F57C00-1200-125">
      <Pair>
        <key>normal</key>
        <styleUrl>#poly-F57C00-1200-125-normal</styleUrl>
      </Pair>
      <Pair>
        <key>highlight</key>
        <styleUrl>#poly-F57C00-1200-125-highlight</styleUrl>
      </Pair>
    </StyleMap>
    <Style id="poly-F57C00-1200-161-normal">
      <LineStyle>
        <color>ff007cf5</color>
        <width>1.2</width>
      </LineStyle>
      <PolyStyle>
        <color>a1007cf5</color>
        <fill>1</fill>
        <outline>1</outline>
      </PolyStyle>
    </Style>
    <Style id="poly-F57C00-1200-161-highlight">
      <LineStyle>
        <color>ff007cf5</color>
        <width>1.8</width>
      </LineStyle>
      <PolyStyle>
        <color>a1007cf5</color>
        <fill>1</fill>
        <outline>1</outline>
      </PolyStyle>
    </Style>
    <StyleMap id="poly-F57C00-1200-161">
      <Pair>
        <key>normal</key>
        <styleUrl>#poly-F57C00-1200-161-normal</styleUrl>
      </Pair>
      <Pair>
        <key>highlight</key>
        <styleUrl>#poly-F57C00-1200-161-highlight</styleUrl>
      </Pair>
    </StyleMap>
    <Style id="poly-FF5252-1200-138-normal">
      <LineStyle>
        <color>ff5252ff</color>
        <width>1.2</width>
      </LineStyle>
      <PolyStyle>
        <color>8a5252ff</color>
        <fill>1</fill>
        <outline>1</outline>
      </PolyStyle>
    </Style>
    <Style id="poly-FF5252-1200-138-highlight">
      <LineStyle>
        <color>ff5252ff</color>
        <width>1.8</width>
      </LineStyle>
      <PolyStyle>
        <color>8a5252ff</color>
        <fill>1</fill>
        <outline>1</outline>
      </PolyStyle>
    </Style>
    <StyleMap id="poly-FF5252-1200-138">
      <Pair>
        <key>normal</key>
        <styleUrl>#poly-FF5252-1200-138-normal</styleUrl>
      </Pair>
      <Pair>
        <key>highlight</key>
        <styleUrl>#poly-FF5252-1200-138-highlight</styleUrl>
      </Pair>
    </StyleMap>
    <Style id="poly-FF5252-1200-171-normal">
      <LineStyle>
        <color>ff5252ff</color>
        <width>1.2</width>
      </LineStyle>
      <PolyStyle>
        <color>ab5252ff</color>
        <fill>1</fill>
        <outline>1</outline>
      </PolyStyle>
    </Style>
    <Style id="poly-FF5252-1200-171-highlight">
      <LineStyle>
        <color>ff5252ff</color>
        <width>1.8</width>
      </LineStyle>
      <PolyStyle>
        <color>ab5252ff</color>
        <fill>1</fill>
        <outline>1</outline>
      </PolyStyle>
    </Style>
    <StyleMap id="poly-FF5252-1200-171">
      <Pair>
        <key>normal</key>
        <styleUrl>#poly-FF5252-1200-171-normal</styleUrl>
      </Pair>
      <Pair>
        <key>highlight</key>
        <styleUrl>#poly-FF5252-1200-171-highlight</styleUrl>
      </Pair>
    </StyleMap>
    <Style id="poly-FFEA00-1200-153-normal">
      <LineStyle>
        <color>ff00eaff</color>
        <width>1.2</width>
      </LineStyle>
      <PolyStyle>
        <color>9900eaff</color>
        <fill>1</fill>
        <outline>1</outline>
      </PolyStyle>
    </Style>
    <Style id="poly-FFEA00-1200-153-highlight">
      <LineStyle>
        <color>ff00eaff</color>
        <width>1.8</width>
      </LineStyle>
      <PolyStyle>
        <color>9900eaff</color>
        <fill>1</fill>
        <outline>1</outline>
      </PolyStyle>
    </Style>
    <StyleMap id="poly-FFEA00-1200-153">
      <Pair>
        <key>normal</key>
        <styleUrl>#poly-FFEA00-1200-153-normal</styleUrl>
      </Pair>
      <Pair>
        <key>highlight</key>
        <styleUrl>#poly-FFEA00-1200-153-highlight</styleUrl>
      </Pair>
    </StyleMap>
    <Style id="poly-FFEA00-2801-117-normal">
      <LineStyle>
        <color>ff00eaff</color>
        <width>2.801</width>
      </LineStyle>
      <PolyStyle>
        <color>7500eaff</color>
        <fill>1</fill>
        <outline>1</outline>
      </PolyStyle>
    </Style>
    <Style id="poly-FFEA00-2801-117-highlight">
      <LineStyle>
        <color>ff00eaff</color>
        <width>4.2015</width>
      </LineStyle>
      <PolyStyle>
        <color>7500eaff</color>
        <fill>1</fill>
        <outline>1</outline>
      </PolyStyle>
    </Style>
    <StyleMap id="poly-FFEA00-2801-117">
      <Pair>
        <key>normal</key>
        <styleUrl>#poly-FFEA00-2801-117-normal</styleUrl>
      </Pair>
      <Pair>
        <key>highlight</key>
        <styleUrl>#poly-FFEA00-2801-117-highlight</styleUrl>
      </Pair>
    </StyleMap>
    <Folder>
      <name>Administração</name>
      <Placemark>
        <name>Secretaria de Saúde</name>
        <description><![CDATA[Horários: Todos os dias das 8h às 17h sem fechar às 12h.<br>OBS: A farmácia fecha quarta às tarde<br><br>Telefones:<br>==========GERAL==========<br>3041-8650<br><br>=========SETORES==========<br>ALMOXARIFADO<br>Fone: 3041-8673<br>Email: almoxarifado.saude@cachoeirinha.rs.gov.br<br><br>DAB - DEPARTAMENTO EM ATENÇÃO BÁSICA <br>Fone: 3041-8661<br>Email: atencaobasica@cachoeirinha.rs.gov.br<br><br>DP - DEPARTAMENTO PESSOAL<br>Fone: 3041-8658<br>Email: rh.sms@cachoeirinha.rs.gov.br<br><br>DPS (DAS) - DEPARTAMENTO DE POLÍTICAS EM SAÚDE<br>Fone: 3041-8671<br>Email: politicasemsaude.sms@cachoeirinha.rs.gov.br<br>dpscachoeirinha@gmail.com<br>maternoinfantil.cacho@gmail.com<br><br>FATURAMENTO/APOIO À GESTÃO:<br>Fone: 3041-8672<br>Email: producaoeinformacao.sms@cachoeirinha.rs.gov.br<br><br>FARMÁCIA<br>Fone: 3041-8687<br>Email:<br><br>GABINETE <br>Fone: 3041- 8663<br>Email: saude@cachoeirinha.rs.gov.br <br><br>IMUNIZAÇÃO <br>Fone: 3041-8655<br>Email:<br><br>JURÍDICO<br>Fone: 3041-8855<br>Email: juridico.saude@cachoeirinha.rs.gov.br <br><br>REGULAÇÃO<br>Fone: 3041-8681<br>3041-8682<br>3041-8683<br>3041-8692<br>3041-8692<br>Email:<br><br>VIGILANCIA EPIDEMIOLÓGICA<br>Fone: 3041-8654 ou 8655<br>Email: vigilanciaepidemiologica@cachoeirinha.rs.gov.br]]></description>
        <styleUrl>#icon-1834-558B2F</styleUrl>
        <Point>
          <coordinates>
            -51.0774843,-29.9314539,0
          </coordinates>
        </Point>
      </Placemark>
    </Folder>
    <Folder>
      <name>UBS</name>
      <Placemark>
        <name>UBS CAIC Granja</name>
        <styleUrl>#icon-1624-0288D1-nodesc</styleUrl>
        <Point>
          <coordinates>
            -51.0822039,-29.9057971,0
          </coordinates>
        </Point>
      </Placemark>
      <Placemark>
        <name>UBS COHAB</name>
        <styleUrl>#icon-1624-0288D1-nodesc</styleUrl>
        <Point>
          <coordinates>
            -51.1013984,-29.9451105,0
          </coordinates>
        </Point>
      </Placemark>
      <Placemark>
        <name>UBS Getúlio Vargas</name>
        <styleUrl>#icon-1624-0288D1-nodesc</styleUrl>
        <Point>
          <coordinates>
            -51.0833107,-29.9246551,0
          </coordinates>
        </Point>
      </Placemark>
      <Placemark>
        <name>UBS Jardim do Bosque</name>
        <styleUrl>#icon-1624-0288D1-nodesc</styleUrl>
        <Point>
          <coordinates>
            -51.0908696,-29.926031,0
          </coordinates>
        </Point>
      </Placemark>
      <Placemark>
        <name>UBS Nova Cachoeirinha</name>
        <description>Email: ubs.novacachoeirinha@cachoeirinha.rs.gov.br</description>
        <styleUrl>#icon-1624-0288D1</styleUrl>
        <Point>
          <coordinates>
            -51.0714068,-29.9049468,0
          </coordinates>
        </Point>
      </Placemark>
      <Placemark>
        <name>UBS Odil Silva de Oliveira</name>
        <description><![CDATA[Atualizado em 12/04/2024<br><br>===================================<br>1 - Horários<br>==================================<br>Segunda à Sexta: 8h às 20h<br><br>==================================<br>2 - Contato<br>==================================<br>Fone: 3438-3977 / 3438-3401<br><br>==================================<br>3 - Serviços<br>==================================<br><br>==================================<br>4 - Localização<br>==================================]]></description>
        <styleUrl>#icon-1624-0288D1</styleUrl>
        <Point>
          <coordinates>
            -51.0723919,-29.9118974,0
          </coordinates>
        </Point>
      </Placemark>
      <Placemark>
        <name>UBS Parque da Matriz</name>
        <description><![CDATA[Atualizado em 19/08/2025<br><br>===================================<br>1 - Horários<br>==================================<br><br>==================================<br>2 - Contato<br>==================================<br>Fone: 3041-6273<br><br>==================================<br>3 - Serviços<br>==================================<br><br>==================================<br>4 - Localização<br>==================================<br>Atendido pela linha de ônibus Parque da Matriz]]></description>
        <styleUrl>#icon-1624-0288D1</styleUrl>
        <Point>
          <coordinates>
            -51.0802083,-29.9485474,0
          </coordinates>
        </Point>
      </Placemark>
      <Placemark>
        <name>UBS Décio Martins Costa</name>
        <description><![CDATA[===================================<br>1 - Horários<br>==================================<br><br>==================================<br>2 - Contato<br>==================================<br>Fone: (51) 3074-5539<br>Fone: (51) 3074-5508<br>==================================<br>3 - Serviços<br>==================================<br><br>==================================<br>4 - Localização<br>==================================<br>Próximo a escola Polivalente;<br>Acesso pela "rua do Calçadão".]]></description>
        <styleUrl>#icon-1624-0288D1</styleUrl>
        <Point>
          <coordinates>
            -51.1025389,-29.9574446,0
          </coordinates>
        </Point>
      </Placemark>
      <Placemark>
        <name>UBS Osvaldo Cruz</name>
        <description><![CDATA[===================================<br>1 - Horários<br>==================================<br><br>==================================<br>2 - Contato<br>==================================<br>Fone: (51) 3041-7194<br>Fone: (51) 3041-6219<br><br>==================================<br>3 - Serviços<br>==================================<br><br>==================================<br>4 - Localização<br>==================================<br>Ao lado do SAE<br>Na 'rua do valão']]></description>
        <styleUrl>#icon-1624-0288D1</styleUrl>
        <Point>
          <coordinates>
            -51.0913399,-29.9383816,0
          </coordinates>
        </Point>
      </Placemark>
    </Folder>
    <Folder>
      <name>Área UBS</name>
      <Placemark>
        <name>UBS Parque da Matriz
</name>
        <description><![CDATA[Av. Concordia<br>Av. Panamericana<br>R. Bonsucesso<br>Rua Alagoinhas<br>Rua Anapolis<br>Rua Arpuador<br>Rua 8<br>Rua Adão Sos Santos<br>Rua Aldoni Carvalho<br>Rua Alenir B. Cardoso<br>Rua Aparicio S. da Silva<br>Rua Araçatuba<br>Rua Armindo S. Martins<br>Rua Bandeirantes<br>Rua Bangu<br>Rua Barão de Cotegipe<br>Rua Bauru<br>Rua Bauru<br>Rua Belo Horizonte<br>Rua Bertoldo Creps<br>Rua Boa Vista<br>Rua Botafogo<br>Rua Botafogo<br>Rua Caboçu<br>Rua Candeias<br>Rua Carlos Schuller<br>Rua Cascavel<br>Rua Claudio Fagundes Santos<br>Rua Congonhas<br>Rua Copacabana<br>Rua Corcovado<br>Rua Cristino M. Dos Santos<br>Rua das Oliveiras<br>Rua Delcio Jose Cordova<br>Rua Deolindo Selao<br>Rua Diadema<br>Rua Diamantina<br>Rua Domingos Dorivaldo Thiesen<br>Rua Eloi Teixeira<br>Rua Emilia Gauna Bochlhein<br>Rua Erico Verissimo<br>Rua Ernesto Che Guevara <br>Rua Euclides Da Cunha<br>Rua Eugenio J, Bisotto<br>Rua Flamengo<br>Rua Fraga<br>Rua Francisco Dimer Raupp<br>Rua Guaporé<br>Rua Henrique Duarte Monteiro<br>Rua Iguatemi<br>Rua Ijui<br>Rua Ilheus<br>Rua Itaberaba<br>Rua Itapema<br>Rua Itapetininga<br>Rua Itaqui<br>Rua Jacarepagua<br>Rua Jose R. de Souza<br>Rua Jose Raupp<br>Rua Jose Souza Jucowsi<br>Rua Juarez C. Evaldt<br>Rua Leblon<br>Rua Limoeiro<br>Rua Lindolfo Wagner<br>Rua Luiz D. Da Silva<br>Rua Luiz de Camões<br>Rua Madureira<br>Rua Manoel Vitorino Nunes<br>Rua Maracanã<br>Rua Marau<br>Rua Maringa<br>Rua Mogi Mirim<br>Rua Monteiro Lobato<br>Rua Morumbi<br>Rua Natalicio Alves<br>Rua Nero Caruso<br>Rua Nildo Delfino<br>Rua Nilton Teixeira<br>Rua Norberto Gomes Da Silva<br>Rua Odil S. de Oliveira<br>Rua Ouro Preto<br>Rua Pacaembu<br>Rua Panamericana<br>Rua Panorama<br>Rua Paquetá<br>Rua Paranavai<br>Rua Parati<br>Rua Petropolis<br>Rua Petrópolis<br>Rua Poços De Caldas<br>Rua Realengo<br>Rua Ribeirão Preto<br>Rua Rio Claro<br>Rua Roseli Nunes<br>Rua Salguero<br>Rua Santa Ines<br>Rua Sen. Luiz Preste<br>Rua Teresopolis<br>Rua Tijuca<br>Rua Valeça<br>Rua Ver. João M. Pereira<br>Rua Zulmira R. Da Silva<br>Tv. Rio Grande<br>Tv. Santos]]></description>
        <styleUrl>#poly-A1C2FA-1200-184</styleUrl>
        <Polygon>
          <outerBoundaryIs>
            <LinearRing>
              <tessellate>1</tessellate>
              <coordinates>
                -51.0839073,-29.9390441,0
                -51.0833306,-29.939732,0
                -51.0823516,-29.9409662,0
                -51.0842586,-29.941875,0
                -51.0842989,-29.944836,0
                -51.0832903,-29.9569952,0
                -51.0794788,-29.9558892,0
                -51.0739294,-29.9549318,0
                -51.069418,-29.9545413,0
                -51.0683773,-29.9458214,0
                -51.075072,-29.9428558,0
                -51.0759089,-29.9319315,0
                -51.0768852,-29.9320152,0
                -51.0778615,-29.9325823,0
                -51.0795781,-29.9354181,0
                -51.0808441,-29.9369475,0
                -51.0818419,-29.9379842,0
                -51.0839073,-29.9390441,0
              </coordinates>
            </LinearRing>
          </outerBoundaryIs>
        </Polygon>
      </Placemark>
      <Placemark>
        <name>UBS Décio Martins Costa
</name>
        <description><![CDATA[Av Delfin Moreira<br>Av. Gal. Anapio Gomes<br>Beco Aboot <br>Beco Luiz Shergl <br>Rua 15 De Novembro <br>Rua 1º De Maio <br>Rua 21 De Abril <br>Rua 7 De Setembro <br>Rua Alzira Jung<br>Rua Arlindo F. Soares<br>Rua Artur Bernardes <br>Rua Café Filho <br>Rua Castro Alves<br>Rua Catão Rosco<br>Rua Cel. João B. S. Da S. E Souza <br>Rua Cilon Rosa<br>Rua Clóvis F. Velho<br>Rua Clóvis Pestana<br>Rua Colorado<br>Rua Décio Costa<br>Rua Dom Bosco<br>Rua Dom Sebastião<br>Rua Dona Otília<br>Rua Elias G. Dos Santos<br>Rua Emílio Dos Santos<br>Rua Epitácio Pessoa <br>Rua Ernesto Dorneles<br>Rua Eulina Martins <br>Rua Eurico G. Dutra <br>Rua Eurípedes Aurélio Da Silva<br>Rua Everaldo M. Da Silva<br>Rua Francisco Martins<br>Rua Gal. João Alfredo<br>Rua Gal. Vignole<br>Rua Gerdau<br>Rua Gravataí<br>Rua Guarani<br>Rua Heini Renner<br>Rua Imbui<br>Rua Independência<br>Rua João A. B. Filho <br>Rua João Dias<br>Rua João Paulo Alcântara <br>Rua João Pessoa<br>Rua José A. Becker<br>Rua José Medeiros<br>Rua Largo Dos Muller <br>Rua Lindolfo Collor <br>Rua Luiz Cardoso<br>Rua Lupicínio Rodrigues<br>Rua Mal. Hermes Da Fonseca <br>Rua Maria De O. Maciel<br>Rua Martinho Lutero<br>Rua Mauá<br>Rua Maurício L. Da Silva<br>Rua Men De Sá<br>Rua Nereu Ramos <br>Rua Nicolau Rosa<br>Rua Nilo Peçanha<br>Rua Ori Kinder<br>Rua Papa João Xxiii<br>Rua Pedro L. A. Marengo<br>Rua Piratini <br>Rua Pruclante De Moraes<br>Rua Ramos<br>Rua Rodrigues Alves <br>Rua Salvador Canelas <br>Rua Santa Clara<br>Rua São Francisco<br>Rua São José <br>Rua São Judas Tadeu<br>Rua São Vicente De Paula<br>Rua Tabajaras<br>Rua Tamoio<br>Rua Tapajós<br>Rua Teodomiro Porto<br>Rua Vitória<br>Rua Walter Jobim<br>Rua Washington Luiz <br>Tr. Araci<br>Tr. Do Carmo <br>Tv. São Roque]]></description>
        <styleUrl>#poly-880E4F-1200-77</styleUrl>
        <Polygon>
          <outerBoundaryIs>
            <LinearRing>
              <tessellate>1</tessellate>
              <coordinates>
                -51.1053892,-29.9547775,0
                -51.1057486,-29.9554944,0
                -51.1056329,-29.9584135,0
                -51.1057827,-29.9586473,0
                -51.1064982,-29.9579763,0
                -51.1072305,-29.9601932,0
                -51.1078004,-29.9603489,0
                -51.1084751,-29.9604813,0
                -51.1076851,-29.9615363,0
                -51.1076395,-29.9617232,0
                -51.106301,-29.9642571,0
                -51.1051452,-29.9647839,0
                -51.1014173,-29.9637928,0
                -51.0986391,-29.9642084,0
                -51.0938709,-29.9616914,0
                -51.0902936,-29.9598621,0
                -51.0913022,-29.9467643,0
                -51.0957332,-29.9490605,0
                -51.0970636,-29.9496415,0
                -51.0980292,-29.9498391,0
                -51.0990377,-29.950111,0
                -51.1001321,-29.9507989,0
                -51.1013283,-29.9518307,0
                -51.1033802,-29.9535226,0
                -51.1053892,-29.9547775,0
              </coordinates>
            </LinearRing>
          </outerBoundaryIs>
        </Polygon>
      </Placemark>
      <Placemark>
        <name>UBS Granja
</name>
        <description><![CDATA[Av Getúlio Vargas <br>Av. Anildo Gomes Alano<br>Av. Frederico Augusto Ritter<br>Estrada dos Capistranos<br>Rua Açaí <br>Rua Adão José Hass<br>Rua Adelaide Helegda Rolim De Moura<br>Rua Adriano dos Santos <br>Rua Alfazema <br>Rua Alvicio De Souza<br>Rua Alzira C. Silveira<br>Rua Amadelino Vaz Garcia<br>Rua Amarilis<br>Rua Amor Perfeito<br>Rua André De Souza Dias<br>Rua Angelo Rocha <br>Rua Antônio S Bento <br>Rua Aparicio Borges <br>Rua Aristide Osório Francisco<br>Rua B<br>Rua Begônia<br>Rua Boca De Leão <br>Rua Brinco De Princesa <br>Rua Bromélia<br>Rua C<br>Rua Cacto<br>Rua Camilía<br>Rua Camomila <br>Rua Carlos Braz Da Silva <br>Rua Copo De Leite<br>Rua Coroa De Cristo <br>Rua Coroa Imperial<br>Rua Cravo<br>Rua Crisântemo Amarelo <br>Rua D<br>Rua Dália<br>Rua Darci Michel<br>Rua Deli Silveira Nunes<br>Rua Dep. Dorival C. L. De Oliveira <br>Rua Dona Isaura<br>Rua Dona Palmira<br>Rua Dormideira<br>Rua E<br>Rua Ema B Dos Santos<br>Rua Emilio A. Da Rosa <br>Rua Eugênio Monteiro <br>Rua F<br>Rua Fernando Pessoa<br>Rua Firmino J. Teixeira<br>Rua Flor De Laranjeira<br>Rua Flor De Liz<br>Rua Flor De Lótus<br>Rua Flor De Pessegueiro <br>Rua Flor De Seda <br>Rua Florentina S. Rodrigues<br>Rua Flores Do Campo <br>Rua G<br>Rua Gardênia<br>Rua Gota De Carvalho<br>Rua Guará <br>Rua H<br>Rua Hibisco <br>Rua I<br>Rua Íris Azul<br>Rua Itália Dallanova Rocha<br>Rua J<br>Rua Jade Vermelha<br>Rua Jasmim <br>Rua Jasmim Branco<br>Rua Javali <br>Rua Joao J. Scheffer<br>Rua João Oscar De Oliveira <br>Rua José Alves Pereira <br>Rua José Amaro<br>Rua José Ângelo Bernardo <br>Rua José Antônio Lutzemberg<br>Rua José De Alencar <br>Rua José F. Maia<br>Rua José Ferreira De Andrade<br>Rua José Manuel Roxo<br>Rua José Oledir Ramos<br>Rua Juan Albino Nunez Ayala <br>Rua Kaufmann<br>Rua Lavanda<br>Rua Leonel Mafassioli<br>Rua Lírio <br>Rua Lotario Orlando Maciel Martijosé<br>Rua Lourdes Helena Dias<br>Rua Luiz B Dimmer<br>Rua Magnólia <br>Rua Malva<br>Rua Manacá<br>Rua Manoel A. Idalino<br>Rua Manoel C Da Rosa<br>Rua Manoel Selau<br>Rua Maria A. Da Costa<br>Rua Mário Quintana <br>Rua Nildo Schutz<br>Rua Nils Taranger<br>Rua Nils Taranger <br>Rua Olavo Da Silva Ribeiro <br>Rua Orquídea <br>Rua Osmar Silva De Oliveira<br>Rua Oswaldino Olívio Selau<br>Rua Otávio S. Pereira<br>Rua Otto Espíndola <br>Rua Papiro <br>Rua Pedro G. De Freitas<br>Rua Petunia<br>Rua Pingo De Ouro<br>Rua Prímula<br>Rua Roque Pesenato<br>Rua Rosa Vermelha<br>Rua Sálvia <br>Rua Sempre Viva <br>Rua Tamanduá<br>Rua Teotônia Vilela <br>Rua Torênia<br>Rua Túnel verde<br>Rua Ver. Mario Rosa<br>Rua Violeta<br>Rua Vitória Régia <br>Rua Zínia]]></description>
        <styleUrl>#poly-F48FB1-901-133</styleUrl>
        <Polygon>
          <outerBoundaryIs>
            <LinearRing>
              <tessellate>1</tessellate>
              <coordinates>
                -51.0966772,-29.9095373,0
                -51.0907415,-29.9102999,0
                -51.0903955,-29.9104301,0
                -51.0876596,-29.9117368,0
                -51.0871664,-29.9122467,0
                -51.0866893,-29.912194,0
                -51.0858733,-29.9125691,0
                -51.0765366,-29.8997254,0
                -51.0793856,-29.8999905,0
                -51.0798538,-29.9006113,0
                -51.081513,-29.8995766,0
                -51.0779141,-29.8946629,0
                -51.0783173,-29.8906793,0
                -51.0840105,-29.8918739,0
                -51.0837188,-29.8952008,0
                -51.08492,-29.8952084,0
                -51.0854123,-29.891787,0
                -51.0894664,-29.8925648,0
                -51.0898855,-29.8926072,0
                -51.0909885,-29.8925078,0
                -51.0921016,-29.894003,0
                -51.0948561,-29.891771,0
                -51.0938188,-29.890842,0
                -51.0941976,-29.8904619,0
                -51.0952177,-29.8884995,0
                -51.0964095,-29.8876534,0
                -51.0984067,-29.8891609,0
                -51.0953201,-29.8918038,0
                -51.0923858,-29.8943437,0
                -51.0929168,-29.8950244,0
                -51.0933191,-29.895761,0
                -51.0947245,-29.8994918,0
                -51.0960616,-29.9030911,0
                -51.0956901,-29.9050546,0
                -51.0964734,-29.9073425,0
                -51.0965324,-29.9085422,0
                -51.0966772,-29.9095373,0
              </coordinates>
            </LinearRing>
          </outerBoundaryIs>
        </Polygon>
      </Placemark>
      <Placemark>
        <name>UBS Osvaldo Cruz
</name>
        <description><![CDATA[Av. Maj. Alberto Bins<br>Av. Princesa Isabel<br>Av. Telmo Silveira Dorneles<br>Rua 16 de Fevereiro<br>Rua 31 de Outubro<br>Rua Bororo<br>Rua Cai<br>Rua Caiapó<br>Rua Cariri<br>Rua Charrua<br>Rua Clarissa B. Do Santos<br>Rua Coroados<br>Rua Daloira F. Da Silva<br>Rua do Abrigo<br>Rua do Parque<br>Rua Dom Feliciano<br>Rua Ernesto Frield<br>Rua Esperança<br>Rua Esperança<br>Rua Fermino Correa da Gama<br>Rua Flávio Catanhede<br>Rua Flavio Jardim<br>Rua Fundo Da Capela<br>Rua Goitacás<br>Rua Guaianá<br>Rua Iracema<br>Rua Irmãos Veiga<br>Rua Jacuí<br>Rua João A. P. De Moraes<br>Rua João Francisco Silva<br>Rua João J. Nunes<br>Rua José Antônio Duarte<br>Rua Manatá<br>Rua Missões<br>Rua Monte Carlo<br>Rua Osório Correa<br>Rua Osvaldo Cruz<br>Rua Pagé<br>Rua São Cristóvão<br>Rua São Manoel<br>Rua São Tomé<br>Rua Silvério Manoel Da Silva<br>Rua Taguarí<br>Rua Tupi<br>Rua Upamarati<br>Rua Ver. Nésio Cunha<br>Rua Xavantes<br>Tv. da Faculdade<br>Tv. Felisberto M. Martins]]></description>
        <styleUrl>#poly-FFEA00-1200-153</styleUrl>
        <Polygon>
          <outerBoundaryIs>
            <LinearRing>
              <tessellate>1</tessellate>
              <coordinates>
                -51.0845222,-29.9298231,0
                -51.0850988,-29.9299978,0
                -51.0852517,-29.9299537,0
                -51.0856997,-29.9296492,0
                -51.0859894,-29.9296795,0
                -51.0863971,-29.9299859,0
                -51.0914878,-29.9335981,0
                -51.0931669,-29.9352833,0
                -51.0959484,-29.9357225,0
                -51.0959999,-29.9367597,0
                -51.0956545,-29.9387243,0
                -51.0943026,-29.9397795,0
                -51.0943054,-29.9425268,0
                -51.0937769,-29.9451879,0
                -51.0936804,-29.9454273,0
                -51.0932753,-29.9475446,0
                -51.0922459,-29.9470011,0
                -51.091203,-29.9464831,0
                -51.090753,-29.9461863,0
                -51.0904808,-29.9459504,0
                -51.0902353,-29.9456541,0
                -51.0897176,-29.94475,0
                -51.0887842,-29.9430022,0
                -51.0879045,-29.9415379,0
                -51.0867029,-29.9402968,0
                -51.0837686,-29.9387232,0
                -51.0820296,-29.9378076,0
                -51.0814832,-29.937282,0
                -51.0810494,-29.936775,0
                -51.0800907,-29.9356401,0
                -51.0792957,-29.9346098,0
                -51.0787903,-29.9336399,0
                -51.0845222,-29.9298231,0
              </coordinates>
            </LinearRing>
          </outerBoundaryIs>
        </Polygon>
      </Placemark>
      <Placemark>
        <name>UBS COHAB</name>
        <description><![CDATA[Av. Mario T. Haussem<br>Beco Afonso Amaral<br>Rua A. J. Renner<br>Rua Almirante Barroso<br>Rua Alvarenga Peixoto<br>Rua Alzira Silveira<br>Rua Amapá<br>Rua Antonio G. Da Silva<br>Rua Arminda Lombardo<br>Rua Artur E. Ozzio<br>Rua Augusto C. De Freitas<br>Rua Bruno C. Muller<br>Rua Caí<br>Rua Cicero Marques<br>Rua Clemente Cifall<br>Rua Da Igueja<br>Rua Emília Martins<br>Rua Fernando Ferrari<br>Rua Flores Da Cunha<br>Rua Francisco A. V. Caldas Junior<br>Rua Francisco Sobrinho<br>Rua Fritz Biser<br>Rua Geni C. Da Silva<br>Rua Honorio Lemos<br>Rua Humaita<br>Rua Iguassú<br>Rua Jacob Vontobel<br>Rua Jeronimo Da Silva<br>Rua Joana Ramos<br>Rua Joci N. Da Silva<br>Rua José C. Da Silva<br>Rua Jose Silveira<br>Rua Lidio Batista Soares<br>Rua Luiz Pasteur<br>Rua Maloha Haussem<br>Rua Manoel P. Pinto<br>Rua Novo Hamburgo<br>Rua Otalibio Silveira<br>Rua Pedro C. Pereira<br>Rua Pedro Ulmann<br>Rua Pio Xii<br>Rua Rio Branco<br>Rua Samuel M. Coelho<br>Rua Santa Rita De Cassia<br>Rua Santa Terezinha<br>Rua Santiago <br>Rua Santo Antonio<br>Rua Santos Dumont<br>Rua São Bernardo<br>Rua São Luiz<br>Rua Tomé De Souza<br>Rua Ver. Inocencio Telles Moreira<br>Rua Ver. Ivo Pereira Marques<br>Rua Francisco Brochado da Rocha <br>Tv. Palmeira<br>Tv. Roma]]></description>
        <styleUrl>#poly-817717-1200-150</styleUrl>
        <Polygon>
          <outerBoundaryIs>
            <LinearRing>
              <tessellate>1</tessellate>
              <coordinates>
                -51.0944314,-29.9424431,0
                -51.0944261,-29.9397377,0
                -51.0957779,-29.9386825,0
                -51.0961126,-29.93669,0
                -51.0960772,-29.9356784,0
                -51.0959771,-29.9337485,0
                -51.0961231,-29.9310282,0
                -51.096349,-29.931,0
                -51.0963171,-29.9335613,0
                -51.0988816,-29.933073,0
                -51.1022312,-29.9332016,0
                -51.102511,-29.9309892,0
                -51.1018037,-29.9275493,0
                -51.1022201,-29.9260346,0
                -51.1193106,-29.9234325,0
                -51.1193956,-29.926023,0
                -51.1168632,-29.9287688,0
                -51.1171742,-29.930664,0
                -51.1209185,-29.9339724,0
                -51.1232105,-29.9334832,0
                -51.1248822,-29.9332851,0
                -51.126039,-29.9333473,0
                -51.1250946,-29.94213,0
                -51.1151376,-29.9424335,0
                -51.1175397,-29.9396194,0
                -51.1180273,-29.9379659,0
                -51.1175923,-29.9379116,0
                -51.1120469,-29.9450305,0
                -51.1106303,-29.9450834,0
                -51.1099432,-29.9452014,0
                -51.1095504,-29.9460218,0
                -51.1075249,-29.948439,0
                -51.1070496,-29.9481346,0
                -51.1069868,-29.9485875,0
                -51.1064739,-29.9494604,0
                -51.1062008,-29.9496341,0
                -51.1053395,-29.9498333,0
                -51.104154,-29.9499216,0
                -51.1036519,-29.9501785,0
                -51.1025811,-29.9511977,0
                -51.102005,-29.9514369,0
                -51.1015522,-29.9515088,0
                -51.0996429,-29.9499872,0
                -51.0992158,-29.9498077,0
                -51.0985901,-29.9496281,0
                -51.097583,-29.9494318,0
                -51.0968494,-29.9492354,0
                -51.0958851,-29.948795,0
                -51.093388,-29.9474749,0
                -51.0938017,-29.9453564,0
                -51.0938909,-29.9451263,0
                -51.0941062,-29.9440811,0
                -51.0942098,-29.9435375,0
                -51.0943107,-29.9430381,0
                -51.0944314,-29.9424431,0
              </coordinates>
            </LinearRing>
          </outerBoundaryIs>
        </Polygon>
      </Placemark>
      <Placemark>
        <name>UBS Odil</name>
        <description><![CDATA[Av. Espírito Santo<br>Av. José Brambila<br>Av. Ver. Manoel G. Junior<br>Rua Ana Lui<br>Rua Anildo Pereira<br>Rua Antônio S. Bento<br>Rua Argentina<br>Rua Áustria<br>Rua Bahia<br>Rua Bernardino Freitas<br>Rua Bolivia<br>Rua Borges de Medeiros<br>Rua Canoas<br>Rua Caracas<br>Rua Carlos S. Feijó<br>Rua Colômbia<br>Rua Darci J. Pacheco<br>Rua Deoclécio Mora<br>Rua Dr. Mário da costa Pereira<br>Rua Equador<br>Rua Flamboyant<br>Rua Florencio V. de Aguiar<br>Rua Fortaleza<br>Rua Generino Manoel dos Santos<br>Rua Goiás<br>Rua Gravatal<br>Rua Guanabara<br>Rua Guatemala<br>Rua Hawai<br>Rua Honduras<br>Rua Ivan Paulo<br>Rua Japão<br>Rua José A. Rodrigues<br>Rua José Alves Pereira<br>Rua José Rodrigues<br>Rua Juscelino K. De Oliveira<br>Rua Lalau Miranda<br>Rua Minas Gerais<br>Rua Pará<br>Rua Paraguai<br>Rua Pedro S. Bernardes<br>Rua Peru<br>Rua Pinhal<br>Rua Porto Alegre<br>Rua Possidonio B. Dos Santos<br>Rua Rio De Janeiro<br>Rua Rio Grande Do Sul<br>Rua Santa Catarina<br>Rua São Salvador<br>Rua Sapucaia<br>Rua Sebardo Bolzer<br>Rua Sebastião F. Da Silva<br>Rua Uruguai<br>Rua Venezuela<br>Rua Vereador Mario Rosa<br>Rua Vereador Osvaldo Correa<br>Tv. Acre<br>Tv. da Fruteira<br>Tv. do Aquino<br>Tv. do Petri<br>Tv. do Povo<br>Tv. Rio Grande Do Sul<br>Tv. São Paulo<br>Tv.Parana]]></description>
        <styleUrl>#poly-7CB342-1200-105</styleUrl>
        <Polygon>
          <outerBoundaryIs>
            <LinearRing>
              <tessellate>1</tessellate>
              <coordinates>
                -51.0717834,-29.9084461,0
                -51.0722642,-29.9070296,0
                -51.0726592,-29.9055991,0
                -51.0738454,-29.9063646,0
                -51.0748814,-29.9051284,0
                -51.0754579,-29.9055816,0
                -51.0759394,-29.9049388,0
                -51.0766108,-29.9047839,0
                -51.0758723,-29.8996725,0
                -51.0765366,-29.8997254,0
                -51.0858733,-29.9125691,0
                -51.0866893,-29.912194,0
                -51.086941,-29.9126946,0
                -51.083894,-29.9139284,0
                -51.0837427,-29.9136666,0
                -51.0831799,-29.9138963,0
                -51.0797564,-29.9091685,0
                -51.0777743,-29.9102705,0
                -51.0773719,-29.9097822,0
                -51.07727,-29.9089127,0
                -51.0775794,-29.9087527,0
                -51.0771466,-29.9081129,0
                -51.0770463,-29.9075643,0
                -51.0769391,-29.9075615,0
                -51.0768749,-29.907618,0
                -51.0759225,-29.9088454,0
                -51.074624,-29.9102867,0
                -51.0740371,-29.9098675,0
                -51.0735132,-29.910477,0
                -51.0731179,-29.9109447,0
                -51.0730693,-29.9109315,0
                -51.0729614,-29.9112838,0
                -51.0728468,-29.9116269,0
                -51.0728341,-29.9120652,0
                -51.0728851,-29.9124182,0
                -51.072981,-29.912759,0
                -51.0730844,-29.913048,0
                -51.0730589,-29.913186,0
                -51.0717878,-29.9131406,0
                -51.0704685,-29.9158253,0
                -51.0705003,-29.9158955,0
                -51.0692132,-29.9166878,0
                -51.0682159,-29.915207,0
                -51.0680389,-29.9145816,0
                -51.068055,-29.9136866,0
                -51.0676366,-29.9129658,0
                -51.0660166,-29.9107571,0
                -51.0663103,-29.910577,0
                -51.066663,-29.9105061,0
                -51.0680818,-29.910441,0
                -51.0692862,-29.9080485,0
                -51.0710108,-29.9086971,0
                -51.071145,-29.908302,0
                -51.0717834,-29.9084461,0
              </coordinates>
            </LinearRing>
          </outerBoundaryIs>
        </Polygon>
      </Placemark>
      <Placemark>
        <name>UBS Jardim do Bosque</name>
        <description><![CDATA[Av B<br>Av Frederico Augusto Ritter<br>Av Primavera <br>Av Wilma Ritter Beiser (AV. A)<br>Av. Capitão Garibaldi P. Dos Santos<br>Av. do Carvalho<br>Est. Manuel José do Nascimento<br>Rua 1<br>Rua 10<br>Rua 11<br>Rua 12<br>Rua 13<br>Rua 14<br>Rua 15<br>Rua 16<br>Rua 17<br>Rua 18<br>Rua 19<br>Rua 2<br>Rua 20<br>Rua 21<br>Rua 3<br>Rua 4<br>Rua 5<br>Rua 6<br>Rua 7<br>Rua 8<br>Rua 9<br>Rua Abacateiro <br>Rua Acácia <br>Rua Alamo<br>Rua Alcides Mendes<br>Rua Alecrim <br>Rua Amoreira<br>Rua Antonio José Do Nascimento <br>Rua Araticum<br>Rua Ari Rosa Dos Santos<br>Rua Aroeira<br>Rua Azaleia<br>Rua Bacopari<br>Rua Batinga<br>Rua Beno Niderauer<br>Rua Breno Rosa Dos Santos<br>Rua Cajueiro <br>Rua Camboata<br>Rua Cangerana<br>Rua Caqui<br>Rua Carobinha<br>Rua Casuarina<br>Rua Cerejeira<br>Rua Cipreste<br>Rua Clovis Tonolher<br>Rua Corticeira<br>Rua Cravina<br>Rua Cristiano J. Nascimento <br>Rua do Bosque<br>Rua Estremosa<br>Rua Euclides G. De Oliveira<br>Rua Flor De Lis<br>Rua Fritz Beiser<br>Rua General Canabarro<br>Rua Gildo De Freitas<br>Rua Girassol <br>Rua Goiabeira <br>Rua Grandiuva<br>Rua Grapia<br>Rua Grevilha<br>Rua Guabirobeira<br>Rua Guamirim<br>Rua Guatambi<br>Rua Hortênsia<br>Rua Ignácio Thielle<br>Rua Inga <br>Rua Ipê <br>Rua Jambo<br>Rua José Da Fonseca <br>Rua José Do Patrocínio <br>Rua José Zingano<br>Rua Lenine Queiroz <br>Rua Macieira <br>Rua Maria de Medeiros<br>Rua Mario T. de Souza<br>Rua Nelida P. Dias<br>Rua Nogueira<br>Rua Obedy Cândido Vieira<br>Rua Oswaldo B. De Ávila <br>Rua Padre Geremias<br>Rua Palmira<br>Rua Pedro J. Becker<br>Rua Plátanos <br>Rua Salseiro<br>Rua Samambaia <br>Rua Sen. Nei Britto <br>Rua Stipe Borc<br>Rua Tarumã<br>Rua Timbó<br>Rua Tulipa<br>Rua Vereador Clóvis Eli Pestana]]></description>
        <styleUrl>#poly-F57C00-1200-161</styleUrl>
        <Polygon>
          <outerBoundaryIs>
            <LinearRing>
              <tessellate>1</tessellate>
              <coordinates>
                -51.0878025,-29.9275571,0
                -51.0882424,-29.9275371,0
                -51.0884677,-29.9272753,0
                -51.0882048,-29.9269523,0
                -51.0881029,-29.926727,0
                -51.0880908,-29.9264854,0
                -51.0881163,-29.9262438,0
                -51.0873909,-29.9256383,0
                -51.0874322,-29.9256131,0
                -51.0882299,-29.9261737,0
                -51.0886888,-29.9256495,0
                -51.0880709,-29.925235,0
                -51.0875066,-29.9247437,0
                -51.0870066,-29.9200399,0
                -51.0872576,-29.9199808,0
                -51.0887491,-29.918456,0
                -51.0893769,-29.9181027,0
                -51.0900261,-29.9178424,0
                -51.0907024,-29.9177498,0
                -51.0904941,-29.916995,0
                -51.0897033,-29.9160876,0
                -51.0892881,-29.9154963,0
                -51.0891012,-29.9155366,0
                -51.0884101,-29.915363,0
                -51.0858952,-29.9163867,0
                -51.084627,-29.916315,0
                -51.0845496,-29.9155287,0
                -51.0840581,-29.9142073,0
                -51.0839302,-29.9139445,0
                -51.086941,-29.9126946,0
                -51.0869341,-29.9124081,0
                -51.0871664,-29.9122467,0
                -51.0876596,-29.9117368,0
                -51.0903955,-29.9104301,0
                -51.0907415,-29.9102999,0
                -51.0966772,-29.9095373,0
                -51.1007456,-29.9180521,0
                -51.1125918,-29.9135298,0
                -51.1135397,-29.9163106,0
                -51.1146161,-29.9190171,0
                -51.1193095,-29.9228953,0
                -51.1195974,-29.9232781,0
                -51.1021074,-29.9261043,0
                -51.1016548,-29.9273683,0
                -51.1022945,-29.9313097,0
                -51.1021185,-29.9332713,0
                -51.0987795,-29.9331012,0
                -51.0962595,-29.9335743,0
                -51.0963051,-29.9310247,0
                -51.0959672,-29.9310113,0
                -51.0958491,-29.9337507,0
                -51.0931562,-29.935179,0
                -51.0914718,-29.9335531,0
                -51.089723,-29.9323456,0
                -51.0859894,-29.9296795,0
                -51.0856997,-29.9296492,0
                -51.0852517,-29.9299537,0
                -51.0850988,-29.9299978,0
                -51.0845222,-29.9298231,0
                -51.0850304,-29.9285483,0
                -51.085646,-29.928208,0
                -51.0878025,-29.9275571,0
              </coordinates>
            </LinearRing>
          </outerBoundaryIs>
        </Polygon>
      </Placemark>
      <Placemark>
        <name>UBS Nova Cachoeirinha</name>
        <description><![CDATA[Av. Espirito Santo<br>Av. Estados Unidos<br>Av. Mal. Rondon<br>Av. Manoel Inacio Nunes<br>Beco da Servidão<br>Rua Canada<br>Rua Dinamarca<br>Rua Domingos Signore<br>Rua Duque De Caxias<br>Rua Eldorado<br>Rua Espanha<br>Rua França<br>Rua Grécia<br>Rua Holanda<br>Rua Hungria<br>Rua Irlanda<br>Rua Italia<br>Rua Iugoslavia<br>Rua Jamaica<br>Rua José Rodrigues<br>Rua Minas Gerais<br>Rua N. Belgica<br>Rua Polonia<br>Rua Porto Alegre<br>Rua Romenia<br>Rua Santa Catarina<br>Rua Sapucaia Do Sul<br>Rua Suiça<br>Tv. do Arvoredo<br>Tv. dos Tucanos<br>Tv. Rio Grande Do Sul]]></description>
        <styleUrl>#poly-EDA29B-1200-140</styleUrl>
        <Polygon>
          <outerBoundaryIs>
            <LinearRing>
              <tessellate>1</tessellate>
              <coordinates>
                -51.0758723,-29.8996725,0
                -51.0766108,-29.9047839,0
                -51.0759394,-29.9049388,0
                -51.0754579,-29.9055816,0
                -51.0748814,-29.9051284,0
                -51.0738454,-29.9063646,0
                -51.0726485,-29.9055828,0
                -51.0722642,-29.9070296,0
                -51.0717834,-29.9084461,0
                -51.071145,-29.908302,0
                -51.0710108,-29.9086971,0
                -51.0692862,-29.9080485,0
                -51.0680818,-29.910441,0
                -51.0666818,-29.9105015,0
                -51.0662942,-29.9105712,0
                -51.0660166,-29.9107571,0
                -51.0650888,-29.9094542,0
                -51.0645432,-29.9086515,0
                -51.0641611,-29.9076443,0
                -51.0632734,-29.9064237,0
                -51.0630293,-29.9057331,0
                -51.0639144,-29.9044682,0
                -51.0655283,-29.8997945,0
                -51.0687014,-29.9005152,0
                -51.070756,-29.9012279,0
                -51.0729286,-29.9020196,0
                -51.0741277,-29.89939,0
                -51.0758723,-29.8996725,0
              </coordinates>
            </LinearRing>
          </outerBoundaryIs>
        </Polygon>
      </Placemark>
      <Placemark>
        <name>UBS Getúlio Vargas
</name>
        <description><![CDATA[Av. Jose Brambila<br>Av. Mal. Rondon<br>Av. Nova Zelandia<br>Rua Abrham Lincon<br>Rua Aimoré<br>Rua Alegrete<br>Rua Antonio Nunes<br>Rua Antônio Nunes<br>Rua Aparecida<br>Rua Ararangua<br>Rua Assunção<br>Rua Brasil<br>Rua Carlos Gomes<br>Rua Caruaru<br>Rua Costa Rica<br>Rua Criciuma<br>Rua Da Penha<br>Rua Duarte Da Costa<br>Rua Estácio De Sá<br>Rua Fernando Machado<br>Rua Florianopolis<br>Rua Frei Mojica<br>Rua Guarujá<br>Rua Henrique Dias<br>Rua Julio De Castilhos<br>Rua Laçador<br>Rua Laguna<br>Rua Lima E Silva<br>Rua Lindoia<br>Rua Lisboa<br>Rua Mantiqueira<br>Rua Manuel Rosa<br>Rua Marte<br>Rua Mexico<br>Rua Monte Castelo<br>Rua Nelson Oliveira Lopes<br>Rua Pindorama<br>Rua Planalto<br>Rua Redenção<br>Rua Rosario<br>Rua Samuara<br>Rua São Pedro<br>Rua Sete Quedas<br>Rua Torres<br>Tv. Lajes<br>Tv. Liberdade<br>Tv. São Pedro<br>Tv. Souza]]></description>
        <styleUrl>#poly-FF5252-1200-138</styleUrl>
        <Polygon>
          <outerBoundaryIs>
            <LinearRing>
              <tessellate>1</tessellate>
              <coordinates>
                -51.0845222,-29.9298231,0
                -51.0787903,-29.9336399,0
                -51.0784527,-29.9330079,0
                -51.0777824,-29.9323293,0
                -51.0765486,-29.931711,0
                -51.0747461,-29.9278709,0
                -51.0743515,-29.9260777,0
                -51.0743526,-29.9254797,0
                -51.0744395,-29.9248723,0
                -51.0744095,-29.9240992,0
                -51.0741923,-29.9233967,0
                -51.0739723,-29.9229941,0
                -51.0746852,-29.9225961,0
                -51.0747294,-29.9226426,0
                -51.0764917,-29.9232658,0
                -51.0768507,-29.9233716,0
                -51.0777207,-29.923702,0
                -51.0780631,-29.9231617,0
                -51.0786537,-29.921829,0
                -51.0771787,-29.9213323,0
                -51.0795274,-29.9187808,0
                -51.0796003,-29.9187719,0
                -51.0800166,-29.9198231,0
                -51.0806449,-29.9216329,0
                -51.0813558,-29.9235851,0
                -51.0814295,-29.9236224,0
                -51.0818333,-29.9240025,0
                -51.0822863,-29.9247996,0
                -51.0828739,-29.9239572,0
                -51.0832153,-29.9242802,0
                -51.0831863,-29.9260742,0
                -51.0827536,-29.9264859,0
                -51.0831257,-29.926686,0
                -51.0833077,-29.9268361,0
                -51.0834656,-29.9270024,0
                -51.0839038,-29.9274879,0
                -51.0832675,-29.9279104,0
                -51.0850304,-29.9285483,0
                -51.0845222,-29.9298231,0
              </coordinates>
            </LinearRing>
          </outerBoundaryIs>
        </Polygon>
      </Placemark>
    </Folder>
    <Folder>
      <name>ESF</name>
      <Placemark>
        <name>ESF Canarinho</name>
        <description><![CDATA[Fecha terça às 15h para reunião.<br>Email: esf.canarinho@cachoeirinha.rs.gov.br]]></description>
        <styleUrl>#icon-1624-0288D1</styleUrl>
        <Point>
          <coordinates>
            -51.0711233,-29.8983084,0
          </coordinates>
        </Point>
      </Placemark>
      <Placemark>
        <name>ESF Jardim Betânia</name>
        <description><![CDATA[Fecha terça às 15h para reunião.<br>Email: esf.jardimbetania@cachoeirinha.rs.gov.br]]></description>
        <styleUrl>#icon-1624-0288D1</styleUrl>
        <Point>
          <coordinates>
            -51.087406,-29.887441,0
          </coordinates>
        </Point>
      </Placemark>
      <Placemark>
        <name>ESF José Ramos</name>
        <description>Fecha terça às 15h para reunião.</description>
        <styleUrl>#icon-1624-0288D1</styleUrl>
        <Point>
          <coordinates>
            -51.0839609,-29.9200076,0
          </coordinates>
        </Point>
      </Placemark>
      <Placemark>
        <name>ESF José Ari da Silveira</name>
        <description>Fecha terça às 15h para reunião.</description>
        <styleUrl>#icon-1624-0288D1</styleUrl>
        <Point>
          <coordinates>
            -51.0752151,-29.9211971,0
          </coordinates>
        </Point>
      </Placemark>
      <Placemark>
        <name>ESF Otacílio Silveira</name>
        <description>Fecha terça às 15h para reunião.</description>
        <styleUrl>#icon-1624-0288D1</styleUrl>
        <Point>
          <coordinates>
            -51.0753985,-29.9128186,0
          </coordinates>
        </Point>
      </Placemark>
      <Placemark>
        <name>ESF Carlos Wilkens</name>
        <description><![CDATA[Atualizado em 12/04/2024<br><br>===================================<br>1 - Horários<br>==================================<br>Segunda à Sexta: <br>Manhã: 8h às 12h - tarde: 13 às 17h.<br>Fecha quarta às 15h para reunião. <br><br>==================================<br>2 - Contato<br>==================================<br>Fone: (51) 3041-7190<br>Email: esf.carloswilkens@cachoeirinha.rs.gov.br <br><br>==================================<br>3 - Serviços<br>==================================<br>É necessário ser cadastrado na ESF pelo agente de saúde e levar seu cartão família e cartão SUS para todos os atendimentos.<br>Não é necessário ser cadastrado para vacinação, acolhimento odontológico, pesagem bolsa-família<br><br>3.1 - Precisam de agendamento<br>Consultas médicas<br>Consultas odontológicas<br>Teste rápido (HIV, hepatite e sífilis)<br>Exame CP (preventivo)<br>Visitas domiciliares<br><br>3.2 - Não precisam de agendamento<br>Teste de gravidez<br>Acolhimento odontológico (manhã: 8h - tarde 13h )<br>Acolhimento médico (manhã: 8h - tarde 13h )<br>Pesagem bolsa-família<br>Aferição de pressão<br>HGT<br>Curativo<br>Vacina<br><br>==================================<br>4 - Localização<br>==================================<br>Próximo a 1ª delegacia de polícia.<br>Próximo à ponte para Porto Alegre<br>Próximo ao mercado Ki-carne]]></description>
        <styleUrl>#icon-1624-0288D1</styleUrl>
        <Point>
          <coordinates>
            -51.1100291,-29.9516368,0
          </coordinates>
        </Point>
      </Placemark>
    </Folder>
    <Folder>
      <name>Área ESF</name>
      <Placemark>
        <name>ESF Jardim Betania</name>
        <description><![CDATA[================================== <br>Área 1<br>================================== <br>Albatroz<br>Arroio Teixeira<br>Atlântida (10-745)<br>Betânia<br>Camboriú<br>Capão da Canoa (10-185)<br>Cidreira<br>Clara Nunes<br>Condomínio Maranhão (Ruas Imperatriz, Cuiabá, Palmas)<br>Condomínio Pará (Federação 685) – 8 torres<br>Imara<br>Imbé<br>Itapeva<br>Itapuã<br>Jardim do Éden<br>João Tavares<br>Libero Badaró<br>Mariluz<br>Miramar<br>Nova Albatroz<br>Nova Cidreira<br>Nova Imara<br>Nova Imbé<br>Nova Rondinha<br>Pereira Pinto<br>Pinto da Rocha<br>Plácido Mottim<br>Rondinha<br>RS 118, 12780 (serraria)<br>Tramandaí<br>Verde Mar <br>Xangrilá<br>Meu Rincão (fora de área)<br>Tunel Verde (fora de área)<br>Sítio Ipiranga (fora de área)<br><br>================================== <br>Área 2<br>================================== <br>Aparício Borges<br>Areias Brancas<br>Armação<br>Av. Atlântida (744-1530) <br>Beco da Sereia<br>Capão da Canoa (215 a 376)<br>Capistranos (41-1355)<br>Cassino<br>Curumim (até 49)<br>Frederico Ritter (7100 a 7235)<br>Lami <br>Laranjal<br>Magistério<br>Noiva do Mar <br>Oásis<br>Quintão<br>Rainha do Mar <br>Salinas<br>Sereia do Mar <br>Travessa da Sereia<br>Travessa da Torre]]></description>
        <styleUrl>#poly-FFEA00-2801-117</styleUrl>
        <Polygon>
          <outerBoundaryIs>
            <LinearRing>
              <tessellate>1</tessellate>
              <coordinates>
                -51.0909885,-29.8925078,0
                -51.0899163,-29.8926061,0
                -51.0894664,-29.8925648,0
                -51.0854123,-29.891787,0
                -51.0849097,-29.8951682,0
                -51.0837188,-29.8952008,0
                -51.0840293,-29.8918716,0
                -51.0745487,-29.8898004,0
                -51.0743556,-29.8894283,0
                -51.0806336,-29.8900742,0
                -51.0813112,-29.8896783,0
                -51.0830096,-29.8896305,0
                -51.0826192,-29.8868467,0
                -51.0837371,-29.8860323,0
                -51.0826899,-29.8827477,0
                -51.083222,-29.8812387,0
                -51.0839043,-29.8804924,0
                -51.084947,-29.8793441,0
                -51.0845326,-29.8791406,0
                -51.0845942,-29.8790593,0
                -51.0850448,-29.8792756,0
                -51.0865737,-29.8784825,0
                -51.0868446,-29.8785186,0
                -51.0875983,-29.8789081,0
                -51.0878048,-29.8790465,0
                -51.0896636,-29.8787941,0
                -51.0900927,-29.8792685,0
                -51.0906775,-29.8789244,0
                -51.0908967,-29.8791732,0
                -51.0911482,-29.8796453,0
                -51.1038801,-29.8779849,0
                -51.1033883,-29.872751,0
                -51.1082272,-29.8726023,0
                -51.1083881,-29.8707601,0
                -51.1139885,-29.8708347,0
                -51.1140099,-29.8699041,0
                -51.1161651,-29.8678218,0
                -51.1176981,-29.8685301,0
                -51.1192073,-29.8679551,0
                -51.1208077,-29.8661473,0
                -51.1216643,-29.8665091,0
                -51.1167565,-29.8715602,0
                -51.1168638,-29.8745186,0
                -51.1175773,-29.8760349,0
                -51.1142567,-29.8851423,0
                -51.1120939,-29.8849836,0
                -51.1052271,-29.8858965,0
                -51.10395,-29.8782489,0
                -51.0911924,-29.8798081,0
                -51.0917986,-29.881464,0
                -51.0919327,-29.8831942,0
                -51.0919488,-29.8845709,0
                -51.0916162,-29.8856686,0
                -51.0912944,-29.8865058,0
                -51.0909538,-29.8878296,0
                -51.0908813,-29.8879441,0
                -51.0908223,-29.8896801,0
                -51.0906184,-29.8903225,0
                -51.0905272,-29.8907835,0
                -51.0905419,-29.8911785,0
                -51.0905781,-29.8915736,0
                -51.0907323,-29.8920965,0
                -51.0909885,-29.8925078,0
              </coordinates>
            </LinearRing>
          </outerBoundaryIs>
        </Polygon>
      </Placemark>
      <Placemark>
        <name>ESF Canarinho
</name>
        <description><![CDATA[================================== <br>Equipe 01<br>================================== <br>Águia<br>Araras<br>Austria (02 ao 300)<br>Bem-te-vi<br>Bulgária<br>Canadá (651 a 932)<br>Capistranos (1 ao 45 e 2010)<br>Escócia<br>Espanha (575 ao 921)<br>Espírito Santo (1457 ao 1731)<br>Falcão<br>França (565 ao 840)<br>Gavião<br>Holanda (582 ao 803)<br>Israel<br>João de Barro<br>Malta<br>Manoel Inácio Nunes (1305 ao 1622)<br>Noruega<br>Pardal (5 ao 27)<br>Quero-quero<br>Estados Unidos (da rua Espírito Santo até a Holanda, lado ímpar)<br>Turquia<br><br>================================== <br>Equipe 02<br>================================== <br>Camélias (31 a 71)<br>Estados Unidos 3 a 165<br>Polônia (565 a 625)<br>Romênia (205 a 533)<br>Suíça (586 a 1004)<br>Marechal Rondon (3756 a 4470)<br>RS 118 (11438 a 11676)<br>Travessa Maciel (35 a 80)<br>Travessa Monte Claro (30 a 50)<br>Travessa Santos (10 a 30)<br>Travessa Suiça A e B<br><br>- Loteamento Chico Mendes:<br>Rua Aracuã<br>Rua Azulão<br>Rua Carruíra<br>Rua Chimango<br>Rua Maçanico <br>Rua Martim Pescador<br>Rua Pintassilgo<br>Rua Saracura<br>Rua Tangará<br>Rua Tesourinha<br><br>- Antenas:<br>Beco da Pardal 1 (do n. 1 ao 50)<br>Beco da Pardal 2 (do n. 1 ao 8)<br>Estrada dos Capistranos<br>Pardal (lado esquerdo)<br>Rua A<br>Rua B<br>Rua C<br>Rua Coruja<br>Rua D<br>Rua E<br>Rua G<br>Rua H<br><br>- União:<br>Rua A<br>Rua B<br>Rua C <br>Rua D]]></description>
        <styleUrl>#poly-FF5252-1200-171</styleUrl>
        <Polygon>
          <outerBoundaryIs>
            <LinearRing>
              <tessellate>1</tessellate>
              <coordinates>
                -51.0729286,-29.9020196,0
                -51.0708204,-29.9012512,0
                -51.0687014,-29.9005152,0
                -51.0655283,-29.8997945,0
                -51.0656531,-29.8957195,0
                -51.0661266,-29.8944558,0
                -51.0659389,-29.8923397,0
                -51.065959,-29.8913119,0
                -51.0673685,-29.890591,0
                -51.0684105,-29.8900748,0
                -51.069592,-29.8895492,0
                -51.0698066,-29.8893586,0
                -51.07339,-29.8876842,0
                -51.0745487,-29.8898004,0
                -51.0743221,-29.8905027,0
                -51.0742134,-29.8912142,0
                -51.0739747,-29.8926466,0
                -51.0738487,-29.894279,0
                -51.0736046,-29.8958649,0
                -51.0718987,-29.8983205,0
                -51.0741277,-29.89939,0
                -51.0729286,-29.9020196,0
              </coordinates>
            </LinearRing>
          </outerBoundaryIs>
        </Polygon>
      </Placemark>
      <Placemark>
        <name>ESF José Ari da Silveira</name>
        <description><![CDATA[================================== <br>Área 1<br>================================== <br>Av. Marechal Rondon (922-1690 lado par)<br>Av. São João (5-370)<br>Rua Alagoas (119-369)<br>Rua Amazonas (45-314)<br>Rua Bahia (19-806)<br>Rua Ceará (5-280)<br>Rua Guarujá (253-343)<br>Rua Maranhão (29-261)<br>Rua Marte (48-179)<br>Rua Orleans (272-336 toda a rua)<br>Rua Pará (15-216)<br>Rua Paraíba (20-472 toda a rua)<br>Rua Pernambuco (25-380)<br>Rua Piauí (5-549)<br>Rua Pindorama (10-210)<br>Rua Rio Grande do Norte (10-482 toda a rua)<br>Rua São Salvador (308-586)<br>Rua Sergipe (12-186)<br>Tv. Acre (12-174)<br>Tv. Iraí (25-200)<br>Tv. Tubarão (21-133 toda a rua)<br><br>================================== <br>Área 2<br>================================== <br>Alameda Serafim<br>Av. José Brambila (1589-2689 lado impar)<br>Rua Alagoas (389-558)<br>Rua Amazonas (331-497)<br>Rua Antonio Pereira Nunes<br>Rua Brasília <br>Rua Campo Grande<br>Rua Fernando de Noronha<br>Rua Goiás (16-797)<br>Rua Maranhão (45-650)<br>Rua Mato Grosso<br>Rua Pará (238-380)<br>Rua Rondônia (18-99)<br>Rua São João (382-686)<br>Rua São Salvador (23-196)<br>Tv. Amizade<br>Tv. Goiás <br>Tv. Vista Alegre]]></description>
        <styleUrl>#poly-CE93D8-1200-135</styleUrl>
        <Polygon>
          <outerBoundaryIs>
            <LinearRing>
              <tessellate>1</tessellate>
              <coordinates>
                -51.0705003,-29.9158955,0
                -51.0704685,-29.9158253,0
                -51.0717878,-29.9131406,0
                -51.0730589,-29.913186,0
                -51.0735042,-29.9138393,0
                -51.0777744,-29.9165628,0
                -51.0787502,-29.9174626,0
                -51.0792031,-29.9179451,0
                -51.0795274,-29.9187808,0
                -51.0793108,-29.9190248,0
                -51.0771787,-29.9213323,0
                -51.0786537,-29.921829,0
                -51.0780631,-29.9231617,0
                -51.0777207,-29.923702,0
                -51.0768507,-29.9233716,0
                -51.0764834,-29.923257,0
                -51.0747294,-29.9226426,0
                -51.0746852,-29.9225961,0
                -51.0739723,-29.9229941,0
                -51.069245,-29.9166883,0
                -51.0705003,-29.9158955,0
              </coordinates>
            </LinearRing>
          </outerBoundaryIs>
        </Polygon>
      </Placemark>
      <Placemark>
        <name>ESF Otacílio Silveira</name>
        <description><![CDATA[================================== <br>Equipe 1<br>================================== <br>Caiçara (140-350)<br>Cairu<br>Curitiba (176-193)<br>Passo Fundo<br>Santa Cruz (176-193)<br>Cerro Largo<br>Curitiba (610-660)<br>Esteio<br>Monte Negro<br>Paraíso (10-50)<br>Santa Cruz (206,208,210)<br>Santa Cruz (184-224)<br>Sapucaia<br>Cacequi<br>Palmitos (240-301)<br>Caxias<br>São Leopoldo<br>Curitiba (60-140)<br>Paraíso (60-140)<br>13 de maio<br>Camaquã<br>Curitiba (794-930)<br>Maria Paim<br>Palmitos (233-123)<br>Paraiso (144-250)<br>Peru (735-745)<br>Rondonia (550-777)<br>Tapes<br>Vacaria<br>Berlim<br>Bitencourt<br>Curitiba (940-980)<br>Esperança<br>Palmitos (53-13)<br>Peru (749-854)<br>Setenta<br><br>================================== <br>Equipe 2<br>================================== <br>24 de Agosto (625-655 lado impar)<br>28 de Outubro (04-110 e 111-119 e 175-295)<br>28 de Outubro (170-390 e 325-385)<br>29 de Março (35-55 e 58-70)<br>Agudo (15-165 ao 80-172)<br>Alagoas (685-665 e 598-698)<br>Amazonas (784-828 lado par)<br>Amazonas (828-583 e 829-715)<br>Amazonas 564-614)<br>Av. Amazonas (565-695 e 654-694)<br>Av. Curitiba (441-801 lado impar)<br>Av. Curitiba (63-425 lado impar)<br>Av. Curitiba (819-975 lado impar)<br>Av. José Brambila (1670-1754 lado par)<br>Av. José Brambila (2458-2522 lado par)<br>Av. José Brambila (2580-2532 e 2438-1754 lado par)<br>Criciumal (05-25 e 10-20)<br>Criciumal (135-207 e 136-232)<br>Guaíba (30-110 e 19-101)<br>Palmeira das Missões (116-218 e 151-225)<br>Palmeira das Missões (23-139 e 130-200)<br>Paranaguá (12-198 lado par)<br>Rolante (05-171 lado impar)<br>Rolante (10-172 lado par)<br>Rondônia (136-156 lado par)<br>Rondônia (166-300 lado par)<br>Rondônia (235-489 e 314-486)<br>Rua G (05-255 e 10-280)<br>Santa Catarina (258-408 e 259-373)<br>Santa Catarina (5-65 lado impar)<br>Santa Catarina (60-230 e 211-231)<br>Santa Rosa (06-11 Beco e 40-130 lado par)<br>Santa Rosa (160-520 lado par)<br>Santa Rosa (31-525 e 520-480)<br>São Jerônimo (10-20 Beco e 11-221 lado impar)<br>São Jerônimo (50-636 e 271-625)<br>Sombrio (110-382 lado par)<br>Sombrio (15-145 e 245-261 e 22-104)<br>Sombrio (155-175 lado impar)<br>Sombrio (418-520 e 275-535)<br>Tv. Chui (11-31 e 30)<br>Tv. Conrado (10)<br>Tv. I (01-105 e 06-120)<br>Tv. I (145-155 e 130)<br>Tv. Nossa Sra das Graças (5-25 lado impar)<br>Tv. União (26-58 lado par)<br>Tv. União (55-175)<br><br>================================== <br>Equipe 3<br>================================== <br>24 de Agosto<br>24 de Outubro<br>25 de Dezembro<br>Angico<br>Araçá (126-198)<br>Araçá (189-337)<br>Araçá (25-165)<br>Araçá (26-112)<br>Barbacena (10-132)<br>Barbaena (172-373)<br>Beco do Olavo<br>Beco União da Vitória<br>Cabriúva<br>Caiçara (5-145)<br>Curitiba (148-490)<br>Curitiba (18-128)<br>Curitiba (410-470)<br>Eucalipto<br>Itajaí<br>Ivoti<br>José Brambila (1486-1580)<br>Mangueira<br>Palmeira das Missões (231-413)<br>São Borja<br>São Gabriel<br>Tv. 4<br>Tv. Ávila<br>Tv. da Ponte (225-499)<br>Tv. da Ponte (23-229)<br>Tv. Missões<br>Tv. Pinho<br>Tv. Santo Dias<br>Vasconcelos<br>Viamão (142-152)<br>Viamão (2-65)]]></description>
        <styleUrl>#poly-F57C00-1200-125</styleUrl>
        <Polygon>
          <outerBoundaryIs>
            <LinearRing>
              <tessellate>1</tessellate>
              <coordinates>
                -51.0797564,-29.9091685,0
                -51.0831333,-29.9138369,0
                -51.0823876,-29.9148226,0
                -51.0820136,-29.9150784,0
                -51.0813508,-29.9170769,0
                -51.0800713,-29.9186592,0
                -51.0797144,-29.9188118,0
                -51.0792806,-29.917909,0
                -51.0789263,-29.9175724,0
                -51.077734,-29.9164954,0
                -51.0735042,-29.9138393,0
                -51.0730589,-29.913186,0
                -51.0730844,-29.913048,0
                -51.072981,-29.912759,0
                -51.0728851,-29.9124182,0
                -51.0728341,-29.9120652,0
                -51.0728468,-29.9116269,0
                -51.0730693,-29.9109315,0
                -51.0731179,-29.9109447,0
                -51.0740371,-29.9098675,0
                -51.074624,-29.9102867,0
                -51.0752842,-29.909557,0
                -51.0759054,-29.9088621,0
                -51.0768749,-29.907618,0
                -51.0769391,-29.9075615,0
                -51.0770463,-29.9075643,0
                -51.0771466,-29.9081129,0
                -51.0775794,-29.9087527,0
                -51.07727,-29.9089127,0
                -51.0773719,-29.9097822,0
                -51.0777743,-29.9102705,0
                -51.0797564,-29.9091685,0
              </coordinates>
            </LinearRing>
          </outerBoundaryIs>
        </Polygon>
      </Placemark>
      <Placemark>
        <name>ESF José Ramos</name>
        <description><![CDATA[================================== <br>Área 01<br>================================== <br>12 de Outubro (15-25)<br>15 de Maio (15-100)<br>Araçá (373-656)<br>Beco do Arroio (38-65)<br>Canela (14-181)<br>Cedro (13-140)<br>Av. Cristovão Colombo (35-662)<br>Estrela (15-209)<br>Beco da Figueira (34-210)<br>Jacarandá (31-259 e 297-491)<br>Beco do João (31-73)<br>João Paulo II (30-194)<br>Av. José Brambila (1346-1426 lado par)<br>Beco do Luiz (21-129)<br>Pitangueira (31-215)<br>Tv. Ponte (32-438)<br>Quaraí (20-91)<br>Beco do Silva (29-115)<br>Tangará (5-110)<br>Uirapuru (5-97)<br>Uruguaiana (2-17)<br><br>================================== <br>Área 02<br>================================== <br>Andorinha<br>Araponga<br>Beija-Flor<br>Bosque<br>Cajueiro<br>Catiguá<br>Cerejeira (797-953)<br>Colibri<br>Curió<br>Av. Fidel Zanchetta<br>Guabijú<br>Guajuviras (240-892)<br>Jamelão (exceto invasão)<br>Lingustro<br>Margarida<br>Mario da Costa Pereira (3221-3404)<br>Mario Teixeira de Souza<br>Murta <br>Peroba<br>Pinheiro<br>Beco do Pinnheiro<br>Quaresmeira<br>Quiri<br>República Piratini<br>Rogério da Silva Oliveira<br>Sabiá<br>Timbaúva<br>Tuia<br><br>================================== <br>Área 03<br>================================== <br>Artidor do Nascimento<br>Assis Brasil<br>Beco dos Gaúchos<br>Caramuru<br>Criciúma<br>Cristóvão Colombo (780-851)<br>Dom João VI<br>Estácio de Sá (237-523)<br>Figueira<br>Frei Caneca<br>Frei Mojica (89-393)<br>Ipanema<br>José de Anchieta<br>Laranjeiras<br>Lima e Silva (410-565)<br>Medianeira<br>Nelson de Oliveira Lopes (741-987)<br>Nova Zelândia (272-695)<br>Rua dos Gaúchos]]></description>
        <styleUrl>#poly-0097A7-1200-110</styleUrl>
        <Polygon>
          <outerBoundaryIs>
            <LinearRing>
              <tessellate>1</tessellate>
              <coordinates>
                -51.0870045,-29.9201052,0
                -51.0875066,-29.9247437,0
                -51.0880709,-29.925235,0
                -51.0886888,-29.9256495,0
                -51.0882299,-29.9261737,0
                -51.0874124,-29.9255872,0
                -51.0873553,-29.9256342,0
                -51.0881163,-29.9262438,0
                -51.0880908,-29.9264854,0
                -51.0881029,-29.926727,0
                -51.0882048,-29.9269523,0
                -51.0884677,-29.9272753,0
                -51.0882424,-29.9275371,0
                -51.0878025,-29.9275571,0
                -51.085646,-29.928208,0
                -51.0850304,-29.9285483,0
                -51.0832675,-29.9279104,0
                -51.0839038,-29.9274879,0
                -51.0833077,-29.9268361,0
                -51.0831257,-29.926686,0
                -51.0827536,-29.9264859,0
                -51.0831755,-29.9260742,0
                -51.0832153,-29.9242802,0
                -51.0828739,-29.9239572,0
                -51.0822863,-29.9247996,0
                -51.0818333,-29.9240025,0
                -51.0814295,-29.9236224,0
                -51.0813558,-29.9235851,0
                -51.080181,-29.9199843,0
                -51.0797144,-29.9188118,0
                -51.0800713,-29.9186592,0
                -51.0803087,-29.9183423,0
                -51.0813508,-29.9170769,0
                -51.0820136,-29.9150784,0
                -51.0824193,-29.9148966,0
                -51.0828942,-29.9143149,0
                -51.0832523,-29.9138777,0
                -51.0837427,-29.9136666,0
                -51.0840451,-29.914272,0
                -51.084292,-29.9148386,0
                -51.0845496,-29.9155287,0
                -51.084627,-29.916315,0
                -51.0855281,-29.9163793,0
                -51.0854756,-29.9168916,0
                -51.0852926,-29.9171163,0
                -51.0845167,-29.9172551,0
                -51.0843258,-29.9165537,0
                -51.0838315,-29.9164576,0
                -51.0842231,-29.91762,0
                -51.0848533,-29.9180152,0
                -51.085245,-29.91898,0
                -51.0854596,-29.9199843,0
                -51.0855454,-29.9202819,0
                -51.0862964,-29.9208584,0
                -51.0867069,-29.9208189,0
                -51.0866854,-29.9205468,0
                -51.0869415,-29.9205248,0
                -51.0869516,-29.9200895,0
                -51.0870045,-29.9201052,0
              </coordinates>
            </LinearRing>
          </outerBoundaryIs>
        </Polygon>
      </Placemark>
      <Placemark>
        <name>ESF Carlos Wilkens
</name>
        <description><![CDATA[================================== <br>1 -Área 1<br>================================== <br>1.1 – Adriana<br>Rua I - Cristal<br>Tv Lucena Muller<br>Rua H – Ametista<br>Rua Portugal<br>Rua Seis<br>Tv. J - Antoninha da Costa Vinhas<br>Tv. L - Alcides Marino Santos<br>Rua M - Valdomiro Correa Andrade<br><br>1.2 – Cláudia<br>Rua 19 de Julho<br>Rua Quatro (Elvira Langer) – 10 à 330<br>Tv. C - Canaã<br>Rua G - Adão Agedi Lopes Konig<br><br>1.3 – Elias<br>Rua Quatro (Elvira Langer) – 1195 à 2430<br>Tv Helster<br>Tv Antenas<br>Tv Eucaliptos<br><br>1.4 – Júlio<br>Rua N - Alceu de Lima Finger<br>Rua Quatro (Elvira Langer) – 340 à 1195<br><br>1.5 – Rosilene<br>Rua F - Leopoldo Nunes<br>Rua José Rauil da Fonseca (Rua 2)<br><br>================================== <br>Área 2<br>================================== <br>2.1 - Área descoberta<br>Rua Arnaldo Schuller<br>Rua Chile<br>Rua Carlos Fraga<br>Rua Luis Henrique<br><br>2.1 – Neidi<br>Rua Antonio Dias<br>Rua Luis Antonio Dias<br>Rua Chapadão<br>Rua Moisés Santos<br>Rua Edgar Bins – 38 à 553 e 580<br>Tv. B<br>Tv. Vera Cruz<br><br>2.2 – Liriani<br>Beco do Sesi<br>Rua Nove <br>Rua Tom Jobim<br>Rua Edgar Bins – 572 à 822<br><br>2.3 – Junior<br>Rua Antonio Bastos<br>Av. Frederico Ritter (41-263)<br>TV. Mj. Antonio Silveira Lima<br>Rua Fernando Ferrari – até 1596<br>Rua Padre Réus<br>Rua Modesto Lima<br>Rua Vereador Rui Souza Feijó<br><br>2.4 – Área descoberta<br>Rua da Paz<br>Rua Emanuel Messias<br>Rua 6 de Maio<br>Rua José Stuart da Silva<br>Rua 29 de Setembro<br>Rua das Flores<br>Rua Querência do Norte<br><br>================================== <br>Área 3<br>================================== <br>3.1 - Maria<br>Rua Anita Garibaldi<br>Rua Afonso Pena<br>Rua Santa Isabel<br>Rua Santo Angelo<br>Rua Nilo Peçanha – até 175<br>Rua Ruy Barbosa<br><br>3.2 – Vera<br>Rua Alvício Silva <br>Rua Manoel Moura<br>Rua Silvério Leopoldo<br>Rua Nércio Xavier<br><br>3.3 – Área descoberta <br>CADOP<br>IRGA<br>Rua 12 de Outubro<br>Rua 9 de Outubro<br>Rua Barão do Triunfo<br>Av. Beira-Rio<br>Rua Ademar Moura<br>Rua Bonifácio Carvalho Bernardes<br>Rua João Rodrigues<br>Rua Osório Dhil<br>Rua Adil Soares<br><br>3.4 – Valquiria<br>Rua Campos Sales<br>Av. Delfim Moreira<br>Av. Flores da Cunha (55-770)<br>Av. Marinha<br>Rua Santa Maria<br><br>3.5 - Área descoberta<br>Av. Brasil Aquino Pedroso<br>Rua Olavo de Freitas<br>Rua Portugal - até 85<br>Rua J - Lourival Martins Rocha<br>Tv. Ladislau de Oliveira Thedy<br>Tv. São Jorge]]></description>
        <styleUrl>#poly-558B2F-2601-105</styleUrl>
        <Polygon>
          <outerBoundaryIs>
            <LinearRing>
              <tessellate>1</tessellate>
              <coordinates>
                -51.1104304,-29.9593102,0
                -51.1126345,-29.9618756,0
                -51.1087125,-29.9610855,0
                -51.1084751,-29.9604813,0
                -51.1078004,-29.9603489,0
                -51.1072305,-29.9601932,0
                -51.1068845,-29.9592683,0
                -51.1064982,-29.9579763,0
                -51.1057827,-29.9586473,0
                -51.1056543,-29.9584204,0
                -51.1056949,-29.9574104,0
                -51.1057117,-29.9567347,0
                -51.1057257,-29.9561218,0
                -51.1057486,-29.9554944,0
                -51.105239,-29.9544242,0
                -51.1042395,-29.9537738,0
                -51.1030362,-29.9529561,0
                -51.1014395,-29.9515785,0
                -51.1018923,-29.9515066,0
                -51.1024684,-29.9512674,0
                -51.1035392,-29.9502482,0
                -51.1040413,-29.9499913,0
                -51.1052268,-29.949903,0
                -51.105537,-29.94986,0
                -51.1058042,-29.9497939,0
                -51.1060881,-29.9497038,0
                -51.1063612,-29.9495301,0
                -51.1065621,-29.9492922,0
                -51.1067362,-29.9490357,0
                -51.1068741,-29.9486572,0
                -51.1069369,-29.9482043,0
                -51.1074122,-29.9485087,0
                -51.1094378,-29.9460915,0
                -51.1098306,-29.9452711,0
                -51.1105177,-29.9451531,0
                -51.1119343,-29.9451002,0
                -51.1162985,-29.9395646,0
                -51.1174797,-29.9379813,0
                -51.1179147,-29.9380356,0
                -51.1174271,-29.9396891,0
                -51.1152941,-29.9420169,0
                -51.1128629,-29.9452501,0
                -51.1151725,-29.9528776,0
                -51.1162346,-29.9521758,0
                -51.1187988,-29.950879,0
                -51.1227684,-29.949064,0
                -51.1239915,-29.9506699,0
                -51.12603,-29.9540303,0
                -51.1245033,-29.9544027,0
                -51.1237275,-29.9551842,0
                -51.1217039,-29.9562637,0
                -51.1201737,-29.9577336,0
                -51.1164548,-29.958311,0
                -51.1153041,-29.9580902,0
                -51.114368,-29.9574233,0
                -51.1130697,-29.9575255,0
                -51.1104304,-29.9593102,0
              </coordinates>
            </LinearRing>
          </outerBoundaryIs>
        </Polygon>
      </Placemark>
    </Folder>
    <Folder>
      <name>Pronto atendimento</name>
      <Placemark>
        <name>Hospital Padre Jeremias</name>
        <description>Linhas de ônibus que passam na frente do Hospital: Parque da Matriz, Granja</description>
        <styleUrl>#icon-1807-E65100</styleUrl>
        <Point>
          <coordinates>
            -51.080429,-29.9404253,0
          </coordinates>
        </Point>
      </Placemark>
      <Placemark>
        <name>UPA 24h Cachoeirinha</name>
        <styleUrl>#icon-1807-E65100-nodesc</styleUrl>
        <Point>
          <coordinates>
            -51.0906773,-29.9179954,0
          </coordinates>
        </Point>
      </Placemark>
    </Folder>
    <Folder>
      <name>Especialidades</name>
      <Placemark>
        <name>CEC - Centro de especialidades médicas
</name>
        <description><![CDATA[Atualizado em 12/04/2024<br><br>===================================<br>1 - Horários<br>==================================<br><br>==================================<br>2 - Contato<br>==================================<br>Fone: 3041-7195<br><br>==================================<br>3 - Serviços<br>==================================<br><br>==================================<br>4 - Localização<br>==================================<br>Próximo a Prefeitura de Cachoeirinha; antes do Mato do Júlio;<br>Parada 54;<br>Antigo PAM.]]></description>
        <styleUrl>#icon-1808-9C27B0</styleUrl>
        <Point>
          <coordinates>
            -51.0916206,-29.9469041,0
          </coordinates>
        </Point>
      </Placemark>
      <Placemark>
        <name>SAE 
</name>
        <description><![CDATA[Ao lado do Posto Osvaldo Cruz.<br>Na rua conhecida como "rua do valão"]]></description>
        <styleUrl>#icon-1808-9C27B0</styleUrl>
        <Point>
          <coordinates>
            -51.0912695,-29.9380255,0
          </coordinates>
        </Point>
      </Placemark>
      <Placemark>
        <name>Centro de Saúde da Pessoa Idosa</name>
        <description><![CDATA[===================================<br>1 - Horários<br>==================================<br>Segunda à Sexta:<br>Manhã: 7h30 às 17h<br><br>==================================<br>2 - Contato<br>==================================<br>Fone: (51) 3041-7194<br><br>==================================<br>3 - Serviços<br>==================================<br><br>==================================<br>4 - Localização<br>==================================]]></description>
        <styleUrl>#icon-1808-9C27B0</styleUrl>
        <Point>
          <coordinates>
            -51.1016773,-29.9489857,0
          </coordinates>
        </Point>
      </Placemark>
    </Folder>
    <Folder>
      <name>Saúde Mental</name>
      <Placemark>
        <name>CAPS II - Centro de Atenção Psicossocial</name>
        <description>Ao lado do CRAS Carlos Wilkens</description>
        <styleUrl>#icon-1624-0F9D58</styleUrl>
        <Point>
          <coordinates>
            -51.1087106,-29.9532121,0
          </coordinates>
        </Point>
      </Placemark>
      <Placemark>
        <name>CAPS AD - Centro de Atenção Psicossocial Álcool e outra Drogas</name>
        <description>Ao lado do Shopping do Vale</description>
        <styleUrl>#icon-1624-0F9D58</styleUrl>
        <Point>
          <coordinates>
            -51.0783732,-29.9360109,0
          </coordinates>
        </Point>
      </Placemark>
      <Placemark>
        <name>Unidade de Saúde Mental Infantil</name>
        <description>Fone: 3074-5583</description>
        <styleUrl>#icon-1624-0F9D58</styleUrl>
        <Point>
          <coordinates>
            -51.0976518,-29.9487031,0
          </coordinates>
        </Point>
      </Placemark>
    </Folder>
    <Folder>
      <name>Odontologia</name>
      <Placemark>
        <name>CEO - Centro de Especialidades Odontológicas
</name>
        <description><![CDATA[Fone: 3471-9605<br>Ao lado da ESF Otacílio.]]></description>
        <styleUrl>#icon-1557-9C27B0</styleUrl>
        <Point>
          <coordinates>
            -51.0751575,-29.9127563,0
          </coordinates>
        </Point>
      </Placemark>
    </Folder>
  </Document>
</kml>
